{
  "version": 0.6,
  "generator": "Overpass API 0.7.61.5 4133829e",
  "osm3s": {
    "timestamp_osm_base": "2024-03-04T15:47:00Z",
    "copyright": "The data included in this document is from www.openstreetmap.org. The data is made available under ODbL."
  },
  "elements": [

{
  "type": "node",
  "id": 281613044,
  "lat": 54.6473187,
  "lon": 54.5615959,
  "tags": {
    "tourism": "hotel"
  }
},
{
  "type": "node",
  "id": 281628996,
  "lat": 48.9802999,
  "lon": 44.6705586,
  "tags": {
    "tourism": "hotel"
  }
},
{
  "type": "node",
  "id": 289461749,
  "lat": 54.7706115,
  "lon": 56.0107215,
  "tags": {
    "name": "Профилакторий Тан",
    "tourism": "hotel"
  }
},
{
  "type": "node",
  "id": 335606014,
  "lat": 52.7616014,
  "lon": 55.7985945,
  "tags": {
    "name": "Кумертау",
    "name:ja": "クメルタウ",
    "tourism": "hotel"
  }
},
{
  "type": "node",
  "id": 359560461,
  "lat": 54.6010984,
  "lon": 53.6957702,
  "tags": {
    "internet_access": "wlan",
    "internet_access:fee": "yes",
    "name": "Башкортостан",
    "tourism": "hotel",
    "website": "http://www.tuimazi-hotel.ru/"
  }
},
{
  "type": "node",
  "id": 361224692,
  "lat": 51.5264787,
  "lon": 46.0539232,
  "tags": {
    "addr:housenumber": "30",
    "addr:street": "улица Лермонтова",
    "email": "reservation@hotelslovakia.ru",
    "internet_access": "wlan",
    "name": "Словакия",
    "opening_hours": "24/7",
    "phone": "+7 964 998 77 83",
    "tourism": "hotel",
    "website": "https://www.hotelslovakia.ru/"
  }
},
{
  "type": "node",
  "id": 362822165,
  "lat": 51.5339605,
  "lon": 46.0204608,
  "tags": {
    "addr:housenumber": "4",
    "addr:street": "площадь Кирова",
    "name": "Арена",
    "tourism": "hotel"
  }
},
{
  "type": "node",
  "id": 362822182,
  "lat": 51.5319227,
  "lon": 46.0263089,
  "tags": {
    "name": "Волга",
    "old_name": "Астория",
    "phone": "+78452263645",
    "tourism": "hotel"
  }
},
{
  "type": "node",
  "id": 370227379,
  "lat": 53.4014596,
  "lon": 58.9809067,
  "tags": {
    "addr:city": "Магнитогорск",
    "addr:housenumber": "99/1",
    "addr:postcode": "455044",
    "addr:street": "проспект Карла Маркса",
    "name": "Арена",
    "phone": "+7 3519 377720",
    "tourism": "hotel"
  }
},
{
  "type": "node",
  "id": 370227380,
  "lat": 53.4372800,
  "lon": 58.9966813,
  "tags": {
    "addr:city": "Магнитогорск",
    "addr:housenumber": "6/1",
    "addr:postcode": "455000",
    "addr:street": "Уральская улица",
    "name": "Азия",
    "phone": "+7 3519 206018",
    "tourism": "hotel",
    "website": "http://aziahotel.ru/"
  }
},
{
  "type": "node",
  "id": 370227385,
  "lat": 53.4344862,
  "lon": 58.9627317,
  "tags": {
    "addr:city": "Магнитогорск",
    "addr:housenumber": "84",
    "addr:postcode": "455000",
    "addr:street": "Вокзальная улица",
    "name": "Кураж",
    "phone": "+7 3519 209678",
    "tourism": "hotel"
  }
},
{
  "type": "node",
  "id": 370227386,
  "lat": 53.4364763,
  "lon": 58.9853776,
  "tags": {
    "addr:city": "Магнитогорск",
    "addr:housenumber": "1/1",
    "addr:postcode": "455000",
    "addr:street": "проспект Ленина",
    "name": "Гостиница МКЗ",
    "phone": "+7 3519 230256",
    "tourism": "hotel"
  }
},
{
  "type": "node",
  "id": 370227403,
  "lat": 53.3818281,
  "lon": 58.9792359,
  "tags": {
    "addr:city": "Магнитогорск",
    "addr:housenumber": "147",
    "addr:postcode": "455038",
    "addr:street": "проспект Карла Маркса",
    "name": "Урал",
    "name:ja": "ウラル",
    "phone": "+7 3519 342445",
    "tourism": "hotel"
  }
},
{
  "type": "node",
  "id": 370227404,
  "lat": 53.4309752,
  "lon": 58.9924236,
  "tags": {
    "addr:city": "Магнитогорск",
    "addr:housenumber": "33",
    "addr:postcode": "455000",
    "addr:street": "Уральская улица",
    "name": "Уют-сервис",
    "phone": "+7 3519 298897",
    "tourism": "hotel"
  }
},
{
  "type": "node",
  "id": 370227405,
  "lat": 53.3658370,
  "lon": 58.9769510,
  "tags": {
    "addr:city": "Магнитогорск",
    "addr:housenumber": "22",
    "addr:postcode": "455049",
    "addr:street": "улица Труда",
    "name": "Строитель",
    "phone": "+7 3519 342845",
    "tourism": "hotel"
  }
},
{
  "type": "node",
  "id": 370227406,
  "lat": 53.3863193,
  "lon": 58.9791895,
  "tags": {
    "addr:city": "Магнитогорск",
    "addr:housenumber": "139",
    "addr:postcode": "455038",
    "addr:street": "проспект Карла Маркса",
    "name": "Турист",
    "phone": "+7 3519 340544",
    "tourism": "hotel"
  }
},
{
  "type": "node",
  "id": 370227408,
  "lat": 53.4003976,
  "lon": 58.9819777,
  "tags": {
    "addr:city": "Магнитогорск",
    "addr:housenumber": "90/4",
    "addr:postcode": "455044",
    "addr:street": "проспект Ленина",
    "name": "Комильфо",
    "opening_hours": "24/7",
    "phone": "+7 3519 288583",
    "tourism": "hotel",
    "website": "http://www.cf-hotel.ru"
  }
},
{
  "type": "node",
  "id": 370227410,
  "lat": 53.4332457,
  "lon": 58.9696765,
  "tags": {
    "addr:city": "Магнитогорск",
    "addr:housenumber": "30",
    "addr:postcode": "455000",
    "addr:street": "Московская улица",
    "contact:email": "karat@hotmail.ru",
    "name": "Карат",
    "phone": "+7 3519 234332",
    "tourism": "hotel",
    "website": "http://hotel-karat.ru/"
  }
},
{
  "type": "node",
  "id": 370228218,
  "lat": 53.4012641,
  "lon": 58.9776177,
  "tags": {
    "addr:city": "Магнитогорск",
    "addr:housenumber": "122/1",
    "addr:postcode": "455044",
    "addr:street": "проспект Карла Маркса",
    "name": "Avrora",
    "tourism": "hotel"
  }
},
{
  "type": "node",
  "id": 370228430,
  "lat": 53.3961290,
  "lon": 58.9864230,
  "tags": {
    "addr:city": "Магнитогорск",
    "addr:housenumber": "89",
    "addr:postcode": "455037",
    "addr:street": "проспект Ленина",
    "name": "Урал",
    "name:ja": "ウラル",
    "tourism": "hotel"
  }
},
{
  "type": "node",
  "id": 370228811,
  "lat": 53.4334505,
  "lon": 58.9823456,
  "tags": {
    "addr:city": "Магнитогорск",
    "addr:housenumber": "33",
    "addr:postcode": "455000",
    "addr:street": "Московская улица",
    "name": "Урал-отель",
    "phone": "+7 3519 207908",
    "tourism": "hotel"
  }
},
{
  "type": "node",
  "id": 370228824,
  "lat": 53.3932340,
  "lon": 58.9788129,
  "tags": {
    "addr:city": "Магнитогорск",
    "addr:housenumber": "119",
    "addr:postcode": "455037",
    "addr:street": "проспект Карла Маркса",
    "contact:email": "fortttuna@mail.ru",
    "description": "Одно- и двухкомнатные квартиры",
    "name": "Фортуна",
    "phone": "+7 3519 318348;+7 912 8075882;+7 912 8075883",
    "tourism": "hotel",
    "website": "http://fortttuna.narod.ru/"
  }
},
{
  "type": "node",
  "id": 457811630,
  "lat": 52.0319458,
  "lon": 47.7738279,
  "tags": {
    "addr:postcode": "413800",
    "contact:instagram": "gostinicasalut",
    "contact:vk": "gostinitsasalut",
    "internet_access": "wlan",
    "level": "1",
    "name": "Гостиница \"Салют\"",
    "name:en": "Салют",
    "name:ru": "Салют",
    "opening_hours": "24/7",
    "phone": "+78453440315",
    "tourism": "hotel",
    "website": "https://gostinitsa-salut.ru/"
  }
},
{
  "type": "node",
  "id": 458686145,
  "lat": 51.1557515,
  "lon": 55.0002393,
  "tags": {
    "tourism": "hotel"
  }
},
{
  "type": "node",
  "id": 514356416,
  "lat": 54.7306371,
  "lon": 55.9493312,
  "tags": {
    "check_date": "2023-07-27",
    "name": "Башкортостан",
    "tourism": "hotel"
  }
},
{
  "type": "node",
  "id": 515778607,
  "lat": 48.7821365,
  "lon": 44.4619929,
  "tags": {
    "fire_rank": "2",
    "name": "Замок",
    "stars": "3",
    "tourism": "hotel",
    "website": "https://frantel-zamok.ru/"
  }
},
{
  "type": "node",
  "id": 567251150,
  "lat": 53.3864606,
  "lon": 50.1722109,
  "tags": {
    "tourism": "hotel"
  }
},
{
  "type": "node",
  "id": 582978208,
  "lat": 53.0995061,
  "lon": 49.9491534,
  "tags": {
    "name": "Ретро",
    "tourism": "hotel"
  }
},
{
  "type": "node",
  "id": 599904597,
  "lat": 54.1896696,
  "lon": 45.1876876,
  "tags": {
    "addr:city": "Саранск",
    "addr:housenumber": "49",
    "addr:street": "улица Полежаева",
    "name": "Сура",
    "name:ja": "スラー",
    "tourism": "hotel"
  }
},
{
  "type": "node",
  "id": 599904600,
  "lat": 54.1931163,
  "lon": 45.1850401,
  "tags": {
    "addr:city": "Саранск",
    "addr:housenumber": "4",
    "addr:street": "улица Федосеенко",
    "name": "Мирта",
    "tourism": "hotel"
  }
},
{
  "type": "node",
  "id": 606986037,
  "lat": 54.3664919,
  "lon": 57.5573310,
  "tags": {
    "name": "Санаторий Ассы",
    "tourism": "hotel"
  }
},
{
  "type": "node",
  "id": 616956595,
  "lat": 53.3842722,
  "lon": 58.9794424,
  "tags": {
    "tourism": "hotel"
  }
},
{
  "type": "node",
  "id": 634527576,
  "lat": 52.0189243,
  "lon": 47.8181516,
  "tags": {
    "name": "Гостиница \"Балаково\"",
    "tourism": "hotel",
    "url": "http://balakovo.otel.su/"
  }
},
{
  "type": "node",
  "id": 635793641,
  "lat": 53.3803588,
  "lon": 58.9882532,
  "tags": {
    "description": "Отель в бизнес-центре ФОРУМ",
    "name": "Форум",
    "tourism": "hotel"
  }
},
{
  "type": "node",
  "id": 639629500,
  "lat": 53.1862247,
  "lon": 50.1216275,
  "tags": {
    "name": "Транзит",
    "name:en": "Transit",
    "tourism": "hotel"
  }
},
{
  "type": "node",
  "id": 650716479,
  "lat": 51.5055021,
  "lon": 45.8100137,
  "tags": {
    "name": "Зелёная крыша",
    "tourism": "hotel"
  }
},
{
  "type": "node",
  "id": 652566017,
  "lat": 54.8147718,
  "lon": 58.4486997,
  "tags": {
    "name": "Уралочка",
    "name:en": "Uralochka",
    "tourism": "hotel"
  }
},
{
  "type": "node",
  "id": 665791630,
  "lat": 53.0997727,
  "lon": 49.9631790,
  "tags": {
    "amenity": "restaurant",
    "contact:phone": "+7 846 3534950",
    "contact:vk": "https://vk.com/vestansk",
    "email": "vesta@hotelvesta.ru",
    "internet_access": "wlan",
    "internet_access:fee": "no",
    "name": "Веста",
    "phone": "+7 846 3596716",
    "stars": "3",
    "tourism": "hotel",
    "website": "http://hotelvesta.ru/"
  }
},
{
  "type": "node",
  "id": 670836817,
  "lat": 51.5289024,
  "lon": 46.0424727,
  "tags": {
    "check_date": "2023-07-03",
    "email": "info@hotel-oazis.ru",
    "name": "Оазис",
    "opening_hours": "24/7",
    "payment:mastercard": "yes",
    "payment:visa": "yes",
    "phone": "+7(8452) 285880",
    "tourism": "hotel",
    "website": "https://www.hotel-oazis.ru/",
    "wheelchair": "no"
  }
},
{
  "type": "node",
  "id": 712964278,
  "lat": 54.7229706,
  "lon": 55.9462420,
  "tags": {
    "name": "Агидель",
    "name:ja": "アギデーリ",
    "tourism": "hotel"
  }
},
{
  "type": "node",
  "id": 718882633,
  "lat": 50.5275982,
  "lon": 42.6693873,
  "tags": {
    "name": "Колос",
    "tourism": "hotel"
  }
},
{
  "type": "node",
  "id": 719000049,
  "lat": 52.7029561,
  "lon": 41.5126778,
  "tags": {
    "contact:phone": "+7 475 2726525",
    "contact:website": "https://tambov.amaks-hotels.ru",
    "name": "АМАКС",
    "old_name": "Турист",
    "opening_hours": "24/7",
    "tourism": "hotel"
  }
},
{
  "type": "node",
  "id": 727499653,
  "lat": 54.9278777,
  "lon": 43.3483219,
  "tags": {
    "email": "hotel-sarov@yandex.ru",
    "full_name": "Гостиница \"Саров\"",
    "name": "Саров",
    "phone": "+7 83130 75555",
    "tourism": "hotel",
    "website": "http://www.hotel-sarov.ru"
  }
},
{
  "type": "node",
  "id": 733729560,
  "lat": 54.8269042,
  "lon": 58.5108274,
  "tags": {
    "name": "Каменный Цветок",
    "tourism": "hotel"
  }
},
{
  "type": "node",
  "id": 738054660,
  "lat": 54.6015228,
  "lon": 53.4626220,
  "tags": {
    "name": "Мега",
    "tourism": "hotel"
  }
},
{
  "type": "node",
  "id": 739191001,
  "lat": 53.2093747,
  "lon": 50.1633201,
  "tags": {
    "name": "Браво",
    "tourism": "hotel"
  }
},
{
  "type": "node",
  "id": 767071984,
  "lat": 48.5727329,
  "lon": 44.4255153,
  "tags": {
    "tourism": "hotel"
  }
},
{
  "type": "node",
  "id": 770438178,
  "lat": 54.4333691,
  "lon": 45.8263001,
  "tags": {
    "name": "ОАО\"Мордовцемент\" Санаторий-Профилакторий Гостиница",
    "tourism": "hotel"
  }
},
{
  "type": "node",
  "id": 789365455,
  "lat": 50.7390342,
  "lon": 43.0555741,
  "tags": {
    "tourism": "hotel"
  }
},
{
  "type": "node",
  "id": 803481861,
  "lat": 53.1266000,
  "lon": 50.2143775,
  "tags": {
    "tourism": "hotel"
  }
},
{
  "type": "node",
  "id": 816402474,
  "lat": 53.3086040,
  "lon": 44.7756961,
  "tags": {
    "name": "ГК Чистые пруды",
    "tourism": "hotel"
  }
},
{
  "type": "node",
  "id": 829852386,
  "lat": 51.7449713,
  "lon": 46.8031925,
  "tags": {
    "name": "СП Нива",
    "tourism": "hotel"
  }
},
{
  "type": "node",
  "id": 849495335,
  "lat": 54.2098848,
  "lon": 49.6021376,
  "tags": {
    "addr:city": "Димитровград",
    "addr:housenumber": "47",
    "addr:street": "проспект Автостроителей",
    "name": "Черемшан",
    "name:ja": "チェレムシャン",
    "tourism": "hotel"
  }
},
{
  "type": "node",
  "id": 860811110,
  "lat": 54.2272264,
  "lon": 49.5494663,
  "tags": {
    "addr:city": "Димитровград",
    "addr:housenumber": "13",
    "addr:street": "улица Гончарова",
    "name": "Радуга",
    "tourism": "hotel"
  }
},
{
  "type": "node",
  "id": 869089510,
  "lat": 53.1898866,
  "lon": 50.0864100,
  "tags": {
    "internet_access": "wlan",
    "name": "Holiday Inn Самара",
    "name:en": "Holiday Inn Samara",
    "opening_hours": "24/7",
    "phone": "8 (800) 250-97-27",
    "stars": "4",
    "tourism": "hotel",
    "website": "http://www.hi-samara.ru"
  }
},
{
  "type": "node",
  "id": 879851241,
  "lat": 53.1994154,
  "lon": 50.1562600,
  "tags": {
    "name": "Орхидея",
    "tourism": "hotel"
  }
},
{
  "type": "node",
  "id": 881608663,
  "lat": 53.2018964,
  "lon": 50.1408615,
  "tags": {
    "check_date": "2023-07-06",
    "name": "Айсберг",
    "opening_hours": "24/7",
    "tourism": "hotel"
  }
},
{
  "type": "node",
  "id": 885655858,
  "lat": 52.4914485,
  "lon": 48.1088755,
  "tags": {
    "addr:housenumber": "10Г",
    "addr:street": "улица Достоевского",
    "fixme": "уточнить положение",
    "name": "Акбарс",
    "tourism": "hotel"
  }
},
{
  "type": "node",
  "id": 885683621,
  "lat": 52.4909828,
  "lon": 48.1118883,
  "tags": {
    "addr:housenumber": "89",
    "addr:street": "Советская улица",
    "name": "Волга",
    "tourism": "hotel"
  }
},
{
  "type": "node",
  "id": 885683634,
  "lat": 52.5132145,
  "lon": 48.0973172,
  "tags": {
    "addr:country": "RU",
    "addr:housenumber": "1Г",
    "addr:street": "улица Российской Республики",
    "name": "Ривьера",
    "tourism": "hotel"
  }
},
{
  "type": "node",
  "id": 885683636,
  "lat": 52.4851142,
  "lon": 48.1048206,
  "tags": {
    "addr:housenumber": "36",
    "addr:street": "улица Урицкого",
    "fixme": "уточнить расположение",
    "name": "Верста",
    "tourism": "hotel",
    "url": "http://verstadom.ru"
  }
},
{
  "type": "node",
  "id": 886032587,
  "lat": 52.5237740,
  "lon": 48.0203516,
  "tags": {
    "photo": "http://panoramio.com/photo/37764544",
    "tourism": "hotel"
  }
},
{
  "type": "node",
  "id": 907179508,
  "lat": 50.6166314,
  "lon": 40.9414028,
  "tags": {
    "tourism": "hotel"
  }
},
{
  "type": "node",
  "id": 907179527,
  "lat": 51.6391906,
  "lon": 45.8049198,
  "tags": {
    "name": "Элвис",
    "tourism": "hotel"
  }
},
{
  "type": "node",
  "id": 907179533,
  "lat": 51.5789006,
  "lon": 45.7637336,
  "tags": {
    "name": "Саратов",
    "name:ja": "サラトフ",
    "tourism": "hotel"
  }
},
{
  "type": "node",
  "id": 909039617,
  "lat": 51.6871652,
  "lon": 46.7052135,
  "tags": {
    "tourism": "hotel"
  }
},
{
  "type": "node",
  "id": 909039650,
  "lat": 51.6954824,
  "lon": 46.7923976,
  "tags": {
    "name": "Золотая миля",
    "tourism": "hotel"
  }
},
{
  "type": "node",
  "id": 909039732,
  "lat": 51.8916917,
  "lon": 47.6225697,
  "tags": {
    "name": "Маянга",
    "name:ru": "Маянга",
    "tourism": "hotel"
  }
},
{
  "type": "node",
  "id": 909039794,
  "lat": 51.6960202,
  "lon": 46.7236786,
  "tags": {
    "tourism": "hotel"
  }
},
{
  "type": "node",
  "id": 909039846,
  "lat": 51.6932878,
  "lon": 46.7882496,
  "tags": {
    "amenity": "cafe",
    "tourism": "hotel"
  }
},
{
  "type": "node",
  "id": 909039925,
  "lat": 51.6953600,
  "lon": 46.7355346,
  "tags": {
    "name": "Руслан",
    "tourism": "hotel"
  }
},
{
  "type": "node",
  "id": 918024852,
  "lat": 53.4779632,
  "lon": 50.4048749,
  "tags": {
    "name": "Рейс",
    "tourism": "hotel"
  }
},
{
  "type": "node",
  "id": 974350694,
  "lat": 54.4539077,
  "lon": 40.0216592,
  "tags": {
    "name": "санаторий Колос",
    "tourism": "hotel"
  }
},
{
  "type": "node",
  "id": 986214707,
  "lat": 54.0741634,
  "lon": 43.2412765,
  "tags": {
    "tourism": "hotel"
  }
},
{
  "type": "node",
  "id": 986216068,
  "lat": 54.0869594,
  "lon": 43.2486834,
  "tags": {
    "name": "Газпром",
    "tourism": "hotel"
  }
},
{
  "type": "node",
  "id": 1000584641,
  "lat": 49.5366267,
  "lon": 42.8046200,
  "tags": {
    "tourism": "hotel"
  }
},
{
  "type": "node",
  "id": 1001704554,
  "lat": 54.8140752,
  "lon": 58.4415915,
  "tags": {
    "name": "Незабудка",
    "tourism": "hotel"
  }
},
{
  "type": "node",
  "id": 1020908463,
  "lat": 52.7448592,
  "lon": 41.4507991,
  "tags": {
    "name": "гостиница Университетская-2",
    "tourism": "hotel"
  }
},
{
  "type": "node",
  "id": 1076637984,
  "lat": 51.5327534,
  "lon": 46.0052677,
  "tags": {
    "tourism": "hotel"
  }
},
{
  "type": "node",
  "id": 1088927734,
  "lat": 52.7353952,
  "lon": 41.4508476,
  "tags": {
    "addr:city": "Тамбов",
    "addr:housenumber": "4",
    "addr:postcode": "392020",
    "addr:street": "площадь Льва Толстого",
    "email": "info@tambov-hotel.ru",
    "internet_access": "wlan",
    "name": "Державинская",
    "opening_hours": "24/7",
    "operator": "ООО \"Управление отелей и ресторанов\"",
    "phone": "+7 4752 48 35 60",
    "tourism": "hotel",
    "website": "http://tambov-hotel.ru/"
  }
},
{
  "type": "node",
  "id": 1096022430,
  "lat": 54.6182707,
  "lon": 58.7602716,
  "tags": {
    "addr:city": "Тюлюк",
    "addr:housenumber": "108",
    "addr:postcode": "456102",
    "addr:street": "улица Карла Маркса",
    "name": "Приют \"Казачья застава\"",
    "phone": "+7 908 0960178",
    "tourism": "hotel",
    "website": "https://www.airbnb.ru/rooms/3900862"
  }
},
{
  "type": "node",
  "id": 1097712991,
  "lat": 53.0528497,
  "lon": 60.6415687,
  "tags": {
    "name": "Гостиница",
    "tourism": "hotel"
  }
},
{
  "type": "node",
  "id": 1103229310,
  "lat": 53.5286975,
  "lon": 43.6793863,
  "tags": {
    "addr:street": "Московская улица",
    "name": "Нижний Ломов",
    "tourism": "hotel"
  }
},
{
  "type": "node",
  "id": 1103232306,
  "lat": 53.5429922,
  "lon": 43.6909765,
  "tags": {
    "name": "Астра",
    "tourism": "hotel"
  }
},
{
  "type": "node",
  "id": 1106180447,
  "lat": 54.7259386,
  "lon": 55.9407351,
  "tags": {
    "check_date": "2023-04-07",
    "name": "Уфа-Астория",
    "tourism": "hotel"
  }
},
{
  "type": "node",
  "id": 1117321142,
  "lat": 54.1286280,
  "lon": 42.6888740,
  "tags": {
    "addr:city": "Умет",
    "addr:housenumber": "1А",
    "addr:street": "Лесная улица",
    "name": "Валентина",
    "phone": "+7 834 58 36048",
    "tourism": "hotel"
  }
},
{
  "type": "node",
  "id": 1117397298,
  "lat": 52.5285552,
  "lon": 52.7467106,
  "tags": {
    "tourism": "hotel"
  }
},
{
  "type": "node",
  "id": 1138240542,
  "lat": 54.8832107,
  "lon": 58.8213626,
  "tags": {
    "name": "Три мушкетера",
    "tourism": "hotel"
  }
},
{
  "type": "node",
  "id": 1143294294,
  "lat": 48.9163269,
  "lon": 40.4053227,
  "tags": {
    "name": "НАТАЛИ",
    "tourism": "hotel"
  }
},
{
  "type": "node",
  "id": 1143295810,
  "lat": 48.9218436,
  "lon": 40.4140331,
  "tags": {
    "name": "КАТЮША",
    "tourism": "hotel"
  }
},
{
  "type": "node",
  "id": 1143347311,
  "lat": 48.9300789,
  "lon": 40.4181487,
  "tags": {
    "name": "Вояж",
    "tourism": "hotel"
  }
},
{
  "type": "node",
  "id": 1143348001,
  "lat": 48.9190543,
  "lon": 40.3922301,
  "tags": {
    "name": "Дружба",
    "tourism": "hotel"
  }
},
{
  "type": "node",
  "id": 1143658574,
  "lat": 52.7517971,
  "lon": 55.7960561,
  "tags": {
    "tourism": "hotel"
  }
},
{
  "type": "node",
  "id": 1165380427,
  "lat": 48.5877367,
  "lon": 45.7269057,
  "tags": {
    "tourism": "hotel"
  }
},
{
  "type": "node",
  "id": 1166303436,
  "lat": 48.5949811,
  "lon": 45.7217437,
  "tags": {
    "name": "Ока",
    "tourism": "hotel"
  }
},
{
  "type": "node",
  "id": 1178985960,
  "lat": 51.1581860,
  "lon": 54.9795324,
  "tags": {
    "tourism": "hotel"
  }
},
{
  "type": "node",
  "id": 1179318717,
  "lat": 48.5261498,
  "lon": 44.5976204,
  "tags": {
    "name": "Гостиница \"Волга\"",
    "tourism": "hotel"
  }
},
{
  "type": "node",
  "id": 1181385135,
  "lat": 53.2704919,
  "lon": 45.5705298,
  "tags": {
    "tourism": "hotel"
  }
},
{
  "type": "node",
  "id": 1191557793,
  "lat": 53.2148528,
  "lon": 50.1657361,
  "tags": {
    "name": "Лайф",
    "phone": "+7 846 202-15-15",
    "source": "survey",
    "tourism": "hotel",
    "website": "https://www.lifehotel.ru/"
  }
},
{
  "type": "node",
  "id": 1201716396,
  "lat": 54.2070772,
  "lon": 45.1538525,
  "tags": {
    "addr:city": "Саранск",
    "addr:housenumber": "15",
    "addr:street": "Строительная улица",
    "name": "Надежда",
    "phone": "+7 (8342) 47-59-96, 8 927 276 59 50",
    "tourism": "hotel",
    "website": "http://hotel13.ru/"
  }
},
{
  "type": "node",
  "id": 1203163092,
  "lat": 53.2088949,
  "lon": 50.1314843,
  "tags": {
    "contact:email": "info@equator63.ru",
    "contact:vk": "https://vk.com/club72735904",
    "internet_access": "wlan",
    "internet_access:fee": "no",
    "name": "Экватор",
    "name:en": "Equator",
    "name:ru": "Экватор",
    "phone": "+7 (846) 337-51-33",
    "stars": "3",
    "tourism": "hotel",
    "website": "https://equator63.ru/"
  }
},
{
  "type": "node",
  "id": 1204105866,
  "lat": 54.8763810,
  "lon": 58.4268873,
  "tags": {
    "name": "Горница",
    "tourism": "hotel"
  }
},
{
  "type": "node",
  "id": 1213520455,
  "lat": 54.4882812,
  "lon": 53.4666344,
  "tags": {
    "addr:housenumber": "16/2",
    "addr:street": "улица Садовое Кольцо",
    "internet_access": "wlan",
    "internet_access:fee": "no",
    "name": "Абсолют-отель",
    "smoking": "no",
    "tourism": "hotel"
  }
},
{
  "type": "node",
  "id": 1221129424,
  "lat": 53.8524015,
  "lon": 57.0418137,
  "tags": {
    "tourism": "hotel"
  }
},
{
  "type": "node",
  "id": 1235771070,
  "lat": 54.0374333,
  "lon": 43.9193165,
  "tags": {
    "name": "Мокша",
    "tourism": "hotel"
  }
},
{
  "type": "node",
  "id": 1242834042,
  "lat": 51.4715737,
  "lon": 57.3557737,
  "tags": {
    "name": "Отдыхающая локомотивных бригад",
    "tourism": "hotel"
  }
},
{
  "type": "node",
  "id": 1249110335,
  "lat": 54.1858025,
  "lon": 45.1631622,
  "tags": {
    "addr:housenumber": "23А",
    "addr:street": "улица Титова",
    "name": "Олимпия",
    "phone": "111555858",
    "tourism": "hotel",
    "website": "http://www.olympia-saransk.ru/"
  }
},
{
  "type": "node",
  "id": 1257892305,
  "lat": 53.4070549,
  "lon": 58.9704628,
  "tags": {
    "addr:housenumber": "43",
    "addr:postcode": "455026",
    "addr:street": "улица им. газеты Правда",
    "name": "Пристань",
    "opening_hours": "24/7",
    "phone": "+7 3519 216219",
    "tourism": "hotel"
  }
},
{
  "type": "node",
  "id": 1261738645,
  "lat": 53.1509386,
  "lon": 47.7587157,
  "tags": {
    "tourism": "hotel"
  }
},
{
  "type": "node",
  "id": 1273319026,
  "lat": 52.8600618,
  "lon": 48.5912093,
  "tags": {
    "name": "Славянская",
    "tourism": "hotel"
  }
},
{
  "type": "node",
  "id": 1289279604,
  "lat": 51.5263599,
  "lon": 46.0558149,
  "tags": {
    "name": "Волна",
    "tourism": "hotel"
  }
},
{
  "type": "node",
  "id": 1297279924,
  "lat": 54.7886860,
  "lon": 43.0007561,
  "tags": {
    "name": "Дубки",
    "tourism": "hotel"
  }
},
{
  "type": "node",
  "id": 1303922722,
  "lat": 53.4933180,
  "lon": 42.6181557,
  "tags": {
    "addr:city": "Земетчино",
    "addr:housenumber": "37",
    "addr:street": "площадь Ленина",
    "name": "Отель",
    "tourism": "hotel"
  }
},
{
  "type": "node",
  "id": 1311781674,
  "lat": 53.2006116,
  "lon": 45.0205709,
  "tags": {
    "name": "Цирк",
    "tourism": "hotel"
  }
},
{
  "type": "node",
  "id": 1324590586,
  "lat": 51.5255290,
  "lon": 46.0261594,
  "tags": {
    "name": "Бизнес отель ИРБиС",
    "tourism": "hotel"
  }
},
{
  "type": "node",
  "id": 1325786090,
  "lat": 51.9499111,
  "lon": 55.1558393,
  "tags": {
    "tourism": "hotel"
  }
},
{
  "type": "node",
  "id": 1333892873,
  "lat": 50.4416313,
  "lon": 40.1308674,
  "tags": {
    "name": "Гостиница",
    "tourism": "hotel"
  }
},
{
  "type": "node",
  "id": 1333893217,
  "lat": 50.4434515,
  "lon": 40.1305912,
  "tags": {
    "name": "Гостиница \"Форд\"",
    "tourism": "hotel"
  }
},
{
  "type": "node",
  "id": 1335743205,
  "lat": 53.3726094,
  "lon": 51.3551120,
  "tags": {
    "tourism": "hotel"
  }
},
{
  "type": "node",
  "id": 1351706575,
  "lat": 48.5077111,
  "lon": 44.5807702,
  "tags": {
    "name": "Царицын",
    "tourism": "hotel"
  }
},
{
  "type": "node",
  "id": 1356422382,
  "lat": 51.8997639,
  "lon": 51.6503042,
  "tags": {
    "email": "gk.stepnoy@mail.ru",
    "name": "Степной",
    "phone": "+7-353-48-2-10-30; +7-932-550-5667",
    "tourism": "hotel",
    "website": "http://gk-stepnoi.ru/"
  }
},
{
  "type": "node",
  "id": 1360320379,
  "lat": 48.6932560,
  "lon": 45.1998975,
  "tags": {
    "tourism": "hotel"
  }
},
{
  "type": "node",
  "id": 1360467422,
  "lat": 54.1822560,
  "lon": 45.1863010,
  "tags": {
    "addr:housenumber": "2",
    "addr:street": "проспект Ленина",
    "name": "Мордовия",
    "tourism": "hotel"
  }
},
{
  "type": "node",
  "id": 1371915218,
  "lat": 50.2578208,
  "lon": 58.4359583,
  "tags": {
    "name": "Хромит",
    "tourism": "hotel"
  }
},
{
  "type": "node",
  "id": 1381457392,
  "lat": 48.7176435,
  "lon": 44.5175334,
  "tags": {
    "name": "Астория",
    "tourism": "hotel"
  }
},
{
  "type": "node",
  "id": 1383192175,
  "lat": 54.2071475,
  "lon": 57.5473269,
  "tags": {
    "name": "Инзер",
    "name:ja": "インゼル",
    "tourism": "hotel"
  }
},
{
  "type": "node",
  "id": 1387111552,
  "lat": 48.7091036,
  "lon": 44.5160102,
  "tags": {
    "email": "info@volgaintour.ru",
    "fax": "+7 (8442) 302 300",
    "name": "Интурист",
    "name:en": "Intourist",
    "phone": "+7 (8442) 302 303",
    "tourism": "hotel",
    "website": "https://www.volgaintour.ru/"
  }
},
{
  "type": "node",
  "id": 1395961071,
  "lat": 51.7554651,
  "lon": 55.0988070,
  "tags": {
    "internet_access": "wlan",
    "name": "Южные ворота, бизнес-отель",
    "tourism": "hotel"
  }
},
{
  "type": "node",
  "id": 1405466623,
  "lat": 54.9022047,
  "lon": 52.3152654,
  "tags": {
    "name": "Омега",
    "tourism": "hotel"
  }
},
{
  "type": "node",
  "id": 1407223660,
  "lat": 48.7959291,
  "lon": 44.5896839,
  "tags": {
    "addr:housenumber": "35Б",
    "addr:street": "улица Ополченская",
    "name": "Гранат",
    "opening_hours": "24/7",
    "phone": "+7 927 539 00 90",
    "tourism": "hotel",
    "website": "https://otel-granat.clients.site/"
  }
},
{
  "type": "node",
  "id": 1411813850,
  "lat": 51.4503772,
  "lon": 46.1021138,
  "tags": {
    "name": "Гостиница",
    "tourism": "hotel"
  }
},
{
  "type": "node",
  "id": 1417017634,
  "lat": 53.6948802,
  "lon": 54.2636071,
  "tags": {
    "tourism": "hotel"
  }
},
{
  "type": "node",
  "id": 1417522381,
  "lat": 53.2358666,
  "lon": 46.1297155,
  "tags": {
    "name": "Пансионат \"Нижнелиповский\"",
    "tourism": "hotel"
  }
},
{
  "type": "node",
  "id": 1420904898,
  "lat": 52.9677197,
  "lon": 55.9240031,
  "tags": {
    "name": "Агидель",
    "tourism": "hotel"
  }
},
{
  "type": "node",
  "id": 1432506414,
  "lat": 53.1860052,
  "lon": 45.0552847,
  "tags": {
    "tourism": "hotel"
  }
},
{
  "type": "node",
  "id": 1472443492,
  "lat": 54.9049807,
  "lon": 52.2865175,
  "tags": {
    "addr:floor": "4",
    "addr:housenumber": "10",
    "addr:street": "улица Нефтяников",
    "name": "Султан Мурат",
    "note": "4 этаж",
    "tourism": "hotel"
  }
},
{
  "type": "node",
  "id": 1475412221,
  "lat": 53.5117214,
  "lon": 49.4211573,
  "tags": {
    "internet_access": "wlan",
    "name": "Волга",
    "tourism": "hotel"
  }
},
{
  "type": "node",
  "id": 1476147641,
  "lat": 53.6694710,
  "lon": 49.4401844,
  "tags": {
    "amenity": "restaurant",
    "description": "Гостинично-ресторнный комплекс. Озеро для рыбалки, два водопада, спортивная площадка (футбол, волейбол), пейнтбол, детская площадка с аттракционами, беседки для пикников, тир, ледяная горка, мини-зоопарк, конный клуб, шатер, комфортабельные коттеджи.",
    "name": "РАНЧО",
    "tourism": "hotel"
  }
},
{
  "type": "node",
  "id": 1498506837,
  "lat": 53.3508720,
  "lon": 50.2222957,
  "tags": {
    "addr:housenumber": "92",
    "addr:street": "Красноглинское шоссе",
    "internet_access": "wlan",
    "name": "Angel hotel",
    "opening_hours": "24/7",
    "phone": "+7 (846) 202-15-88",
    "tourism": "hotel",
    "website": "http://www.angelhotel.ru"
  }
},
{
  "type": "node",
  "id": 1498538380,
  "lat": 53.3517108,
  "lon": 50.2190230,
  "tags": {
    "name": "Лилия",
    "tourism": "hotel"
  }
},
{
  "type": "node",
  "id": 1519686627,
  "lat": 53.8672453,
  "lon": 44.3640776,
  "tags": {
    "tourism": "hotel"
  }
},
{
  "type": "node",
  "id": 1532963469,
  "lat": 51.3780575,
  "lon": 42.0990629,
  "tags": {
    "tourism": "hotel"
  }
},
{
  "type": "node",
  "id": 1550258350,
  "lat": 52.9795438,
  "lon": 49.7167969,
  "tags": {
    "amenity": "restaurant",
    "name": "Русь",
    "phone": "+7 846 3923432",
    "tourism": "hotel"
  }
},
{
  "type": "node",
  "id": 1583879024,
  "lat": 54.1932731,
  "lon": 45.1599937,
  "tags": {
    "name": "Гостиница на Кутузова",
    "phone": "33-91-27",
    "tourism": "hotel"
  }
},
{
  "type": "node",
  "id": 1585328278,
  "lat": 48.5544617,
  "lon": 45.8950127,
  "tags": {
    "name": "Гостиница",
    "tourism": "hotel"
  }
},
{
  "type": "node",
  "id": 1598677139,
  "lat": 52.5122722,
  "lon": 52.7745907,
  "tags": {
    "tourism": "hotel"
  }
},
{
  "type": "node",
  "id": 1601547111,
  "lat": 54.9665205,
  "lon": 52.3488538,
  "tags": {
    "tourism": "hotel"
  }
},
{
  "type": "node",
  "id": 1614077764,
  "lat": 52.4069980,
  "lon": 53.1615449,
  "tags": {
    "name": "Пирамида",
    "tourism": "hotel"
  }
},
{
  "type": "node",
  "id": 1657245408,
  "lat": 53.7094695,
  "lon": 40.0617515,
  "tags": {
    "tourism": "hotel"
  }
},
{
  "type": "node",
  "id": 1657245639,
  "lat": 53.7079486,
  "lon": 40.0643613,
  "tags": {
    "name": "Берёзка",
    "tourism": "hotel"
  }
},
{
  "type": "node",
  "id": 1662013000,
  "lat": 52.6130236,
  "lon": 48.9630164,
  "tags": {
    "tourism": "hotel"
  }
},
{
  "type": "node",
  "id": 1666856397,
  "lat": 49.7629788,
  "lon": 43.6540581,
  "tags": {
    "name": "Гостиница",
    "tourism": "hotel"
  }
},
{
  "type": "node",
  "id": 1671688215,
  "lat": 53.5884731,
  "lon": 58.5989679,
  "tags": {
    "name": "Белые росы",
    "tourism": "hotel"
  }
},
{
  "type": "node",
  "id": 1671688223,
  "lat": 53.5884519,
  "lon": 58.5971948,
  "tags": {
    "addr:city": "Зелёная Поляна",
    "addr:housenumber": "55/2",
    "addr:street": "Курортная улица",
    "name": "Альпенхоф",
    "name:en": "AlpenHof",
    "tourism": "hotel"
  }
},
{
  "type": "node",
  "id": 1684869468,
  "lat": 54.6525232,
  "lon": 60.9112584,
  "tags": {
    "tourism": "hotel"
  }
},
{
  "type": "node",
  "id": 1705420185,
  "lat": 48.8075867,
  "lon": 44.7319260,
  "tags": {
    "addr:city": "Волжский",
    "addr:housenumber": "23А",
    "addr:postcode": "404130",
    "addr:street": "улица Логинова",
    "name": "Адреналин",
    "phone": "+7‒961‒673‒37‒77",
    "tourism": "hotel",
    "website": "http://adrenaline34.ru"
  }
},
{
  "type": "node",
  "id": 1718198917,
  "lat": 51.0976380,
  "lon": 40.0411541,
  "tags": {
    "name": "Бобров",
    "tourism": "hotel"
  }
},
{
  "type": "node",
  "id": 1731667462,
  "lat": 51.1550805,
  "lon": 54.9945074,
  "tags": {
    "source": "survey",
    "tourism": "hotel"
  }
},
{
  "type": "node",
  "id": 1748462417,
  "lat": 53.8058627,
  "lon": 60.6481624,
  "tags": {
    "tourism": "hotel"
  }
},
{
  "type": "node",
  "id": 1788460093,
  "lat": 52.6511434,
  "lon": 42.7400322,
  "tags": {
    "name": "Русь",
    "tourism": "hotel"
  }
},
{
  "type": "node",
  "id": 1827973772,
  "lat": 53.1862370,
  "lon": 50.1010800,
  "tags": {
    "name": "Kolos",
    "tourism": "hotel"
  }
},
{
  "type": "node",
  "id": 1833862854,
  "lat": 53.7404792,
  "lon": 41.0118651,
  "tags": {
    "internet_access": "no",
    "internet_access:fee": "no",
    "tourism": "hotel",
    "wheelchair": "no"
  }
},
{
  "type": "node",
  "id": 1859973838,
  "lat": 54.9524308,
  "lon": 52.2646033,
  "tags": {
    "leisure": "resort",
    "name": "База отдыха \"Юность\" НГДУ Альметьевнефть",
    "phone": "+7 8553 370963",
    "resort": "recreation_center",
    "tourism": "hotel",
    "website": "https://social.tatneft.ru/bazi-otdiha/zimnie-i-dvuhdnevnie/yunost/?lang=ru"
  }
},
{
  "type": "node",
  "id": 1863896782,
  "lat": 53.2092525,
  "lon": 43.0378521,
  "tags": {
    "name": "ИП Макаров В. В.",
    "tourism": "hotel"
  }
},
{
  "type": "node",
  "id": 1866067612,
  "lat": 51.3660320,
  "lon": 42.0788856,
  "tags": {
    "name": "Жара",
    "tourism": "hotel"
  }
},
{
  "type": "node",
  "id": 1866067616,
  "lat": 51.3683123,
  "lon": 42.0903124,
  "tags": {
    "addr:housenumber": "60",
    "addr:street": "Советская улица",
    "tourism": "hotel"
  }
},
{
  "type": "node",
  "id": 1871860399,
  "lat": 52.3133648,
  "lon": 45.3923869,
  "tags": {
    "name": "Алые паруса",
    "tourism": "hotel"
  }
},
{
  "type": "node",
  "id": 1876923492,
  "lat": 52.2584197,
  "lon": 43.7916322,
  "tags": {
    "name": "Заря",
    "tourism": "hotel"
  }
},
{
  "type": "node",
  "id": 1947284902,
  "lat": 53.8889058,
  "lon": 51.2508144,
  "tags": {
    "name": "Югра",
    "tourism": "hotel"
  }
},
{
  "type": "node",
  "id": 1962278547,
  "lat": 53.5136512,
  "lon": 49.2242573,
  "tags": {
    "tourism": "hotel"
  }
},
{
  "type": "node",
  "id": 1978599256,
  "lat": 53.5061649,
  "lon": 49.4019593,
  "tags": {
    "tourism": "hotel"
  }
},
{
  "type": "node",
  "id": 1983970734,
  "lat": 53.1872078,
  "lon": 50.0914773,
  "tags": {
    "addr:postcode": "443099",
    "name": "AZIMUT Отель Самара",
    "phone": "+7 846 2778080",
    "smoking": "no",
    "tourism": "hotel",
    "website": "https://azimuthotels.com/"
  }
},
{
  "type": "node",
  "id": 2007095793,
  "lat": 53.1962828,
  "lon": 45.1697947,
  "tags": {
    "name": "Гостиница \"Космос\"",
    "tourism": "hotel",
    "wheelchair": "no"
  }
},
{
  "type": "node",
  "id": 2024467912,
  "lat": 53.3767670,
  "lon": 60.9642127,
  "tags": {
    "tourism": "hotel"
  }
},
{
  "type": "node",
  "id": 2036135143,
  "lat": 53.3623203,
  "lon": 55.9246341,
  "tags": {
    "name": "Урал",
    "name:ja": "ウラル",
    "tourism": "hotel"
  }
},
{
  "type": "node",
  "id": 2087035553,
  "lat": 52.8269470,
  "lon": 50.4996839,
  "tags": {
    "name": "Ветерок",
    "tourism": "hotel"
  }
},
{
  "type": "node",
  "id": 2087041056,
  "lat": 52.3841495,
  "lon": 50.5193869,
  "tags": {
    "name": "Анталья",
    "tourism": "hotel"
  }
},
{
  "type": "node",
  "id": 2087065617,
  "lat": 48.9345898,
  "lon": 44.6181768,
  "tags": {
    "tourism": "hotel"
  }
},
{
  "type": "node",
  "id": 2098281738,
  "lat": 53.2427526,
  "lon": 40.2832748,
  "tags": {
    "tourism": "hotel"
  }
},
{
  "type": "node",
  "id": 2112489805,
  "lat": 48.8549534,
  "lon": 44.3511917,
  "tags": {
    "name": "Спутник",
    "tourism": "hotel"
  }
},
{
  "type": "node",
  "id": 2132444670,
  "lat": 53.1996066,
  "lon": 50.1872398,
  "tags": {
    "tourism": "hotel"
  }
},
{
  "type": "node",
  "id": 2141045172,
  "lat": 50.4561546,
  "lon": 40.1308092,
  "tags": {
    "name": "Гранд Отель",
    "tourism": "hotel"
  }
},
{
  "type": "node",
  "id": 2209932746,
  "lat": 51.9848192,
  "lon": 53.8677869,
  "tags": {
    "tourism": "hotel"
  }
},
{
  "type": "node",
  "id": 2224832768,
  "lat": 51.1536571,
  "lon": 54.9956389,
  "tags": {
    "addr:street": "Советская улица",
    "name": "Мини гостиница \"Рай\"",
    "source": "survey",
    "tourism": "hotel"
  }
},
{
  "type": "node",
  "id": 2292297976,
  "lat": 48.7543450,
  "lon": 44.4934543,
  "tags": {
    "contact:phone": "+7 (8442) 54-66-37",
    "contact:website": "https://noy-volgograd.ru/",
    "name": "Ной",
    "old_name": "Кристина",
    "tourism": "hotel"
  }
},
{
  "type": "node",
  "id": 2292821542,
  "lat": 52.1485530,
  "lon": 56.8576173,
  "tags": {
    "tourism": "hotel"
  }
},
{
  "type": "node",
  "id": 2360959539,
  "lat": 53.4319274,
  "lon": 58.9608122,
  "tags": {
    "name": "Звёздный дом",
    "tourism": "hotel"
  }
},
{
  "type": "node",
  "id": 2386756516,
  "lat": 53.5000720,
  "lon": 49.3899798,
  "tags": {
    "name": "Спорт-Отель",
    "tourism": "hotel"
  }
},
{
  "type": "node",
  "id": 2391354550,
  "lat": 54.0153135,
  "lon": 55.8981783,
  "tags": {
    "tourism": "hotel"
  }
},
{
  "type": "node",
  "id": 2398211549,
  "lat": 54.3197883,
  "lon": 48.4031373,
  "tags": {
    "brand": "AZIMUT Hotels",
    "contact:vk": "https://vk.com/azimutulyanovsk",
    "email": "reservations.ulyanovsk@azimuthotels.com",
    "internet_access": "wlan",
    "name": "Azimut отель Ульяновск",
    "name:en": "Azimut Hotel Ulyanovsk",
    "name:ru": "Azimut отель Ульяновск",
    "old_fax": "+7 8422 441567",
    "old_name": "Венец",
    "old_name:en": "Venets",
    "old_name:ru": "Венец",
    "old_phone": "+7 8422 441870",
    "operator": "Отель в Ульяновске",
    "phone": "+78422441700",
    "stars": "3",
    "tourism": "hotel",
    "website": "https://azimuthotels.com/ru/ulyanovsk/azimut-hotel-ulyanovsk",
    "wheelchair": "yes"
  }
},
{
  "type": "node",
  "id": 2409487556,
  "lat": 52.2159658,
  "lon": 49.0832883,
  "tags": {
    "check_date": "2023-08-17",
    "internet_access": "wlan",
    "internet_access:fee": "no",
    "name": "Евро Миля",
    "name:ru": "Евро Миля",
    "opening_hours": "24/7",
    "payment:cards": "yes",
    "payment:contactless": "yes",
    "payment:credit_cards": "yes",
    "payment:debit_cards": "yes",
    "payment:mastercard": "yes",
    "payment:mastercard_contactless": "yes",
    "payment:mir": "yes",
    "payment:nfc": "yes",
    "payment:visa": "yes",
    "payment:visa_contactless": "yes",
    "payment:visa_debit": "yes",
    "tourism": "hotel",
    "wheelchair": "no"
  }
},
{
  "type": "node",
  "id": 2411123175,
  "lat": 53.9609719,
  "lon": 48.7907810,
  "tags": {
    "addr:city": "Сенгилей",
    "addr:housenumber": "29",
    "addr:street": "улица Пушкарёва",
    "name": "ИП Васич",
    "tourism": "hotel"
  }
},
{
  "type": "node",
  "id": 2412813809,
  "lat": 53.6143307,
  "lon": 55.9050940,
  "tags": {
    "addr:city": "Стерлитамак",
    "addr:housenumber": "23",
    "addr:street": "Берёзовая улица",
    "name": "Ковчег",
    "tourism": "hotel",
    "website": "http://kovcheg-str.ru/"
  }
},
{
  "type": "node",
  "id": 2436920978,
  "lat": 52.8929321,
  "lon": 49.5840273,
  "tags": {
    "tourism": "hotel"
  }
},
{
  "type": "node",
  "id": 2442341068,
  "lat": 53.1986803,
  "lon": 50.2574244,
  "tags": {
    "addr:housenumber": "7А",
    "addr:postcode": "443022",
    "addr:street": "Заводское шоссе",
    "name": "Бессоница",
    "tourism": "hotel"
  }
},
{
  "type": "node",
  "id": 2458449078,
  "lat": 50.0481120,
  "lon": 46.8749330,
  "tags": {
    "addr:housenumber": "135",
    "addr:street": "Юбилейная улица",
    "name": "Наталия",
    "tourism": "hotel"
  }
},
{
  "type": "node",
  "id": 2461264513,
  "lat": 54.3201654,
  "lon": 40.8601713,
  "tags": {
    "name": "мечта",
    "tourism": "hotel"
  }
},
{
  "type": "node",
  "id": 2471211987,
  "lat": 53.1847550,
  "lon": 50.1907389,
  "tags": {
    "internet_access": "wlan",
    "name": "Южный",
    "tourism": "hotel"
  }
},
{
  "type": "node",
  "id": 2489765310,
  "lat": 54.9302614,
  "lon": 48.8288168,
  "tags": {
    "addr:city": "Тетюши",
    "addr:country": "RU",
    "addr:housenumber": "72",
    "addr:postcode": "423370",
    "addr:street": "улица Калинина",
    "internet_access": "no",
    "leisure": "sauna",
    "name": "Волга",
    "phone": "+7 962 5555999;+7 906 1111888",
    "source": "survey",
    "tourism": "hotel"
  }
},
{
  "type": "node",
  "id": 2494031974,
  "lat": 51.4960569,
  "lon": 46.1369332,
  "tags": {
    "name": "Гостиница Восток",
    "tourism": "hotel"
  }
},
{
  "type": "node",
  "id": 2508695570,
  "lat": 50.0376866,
  "lon": 46.8722888,
  "tags": {
    "name": "гостиница",
    "tourism": "hotel"
  }
},
{
  "type": "node",
  "id": 2509360227,
  "lat": 50.4243672,
  "lon": 41.0179488,
  "tags": {
    "tourism": "hotel"
  }
},
{
  "type": "node",
  "id": 2547926234,
  "lat": 53.5344461,
  "lon": 49.3276187,
  "tags": {
    "amenity": "restaurant",
    "name": "Поручикъ Голицинъ",
    "tourism": "hotel",
    "website": "https://golicin.su/"
  }
},
{
  "type": "node",
  "id": 2598870799,
  "lat": 53.1872440,
  "lon": 45.1633992,
  "tags": {
    "name": "Гостиница \"Лесная\"",
    "tourism": "hotel"
  }
},
{
  "type": "node",
  "id": 2616256657,
  "lat": 54.4761035,
  "lon": 53.4833484,
  "tags": {
    "name": "Либерти",
    "tourism": "hotel"
  }
},
{
  "type": "node",
  "id": 2618928331,
  "lat": 53.1090597,
  "lon": 46.4794224,
  "tags": {
    "name": "У мамы",
    "tourism": "hotel"
  }
},
{
  "type": "node",
  "id": 2620541687,
  "lat": 53.8122559,
  "lon": 58.6410713,
  "tags": {
    "addr:city": "Новоабзаково",
    "addr:country": "RU",
    "addr:district": "Белорецкий район",
    "addr:housenumber": "3",
    "addr:postcode": "453565",
    "addr:region": "Башкортостан",
    "addr:street": "улица Ёлочки",
    "description": "наверное лучщее место по соотношению цена/качество",
    "name": "Усадьба Еловое",
    "tourism": "hotel"
  }
},
{
  "type": "node",
  "id": 2649762907,
  "lat": 54.7193855,
  "lon": 56.0001049,
  "tags": {
    "name": "4 сезона",
    "tourism": "hotel"
  }
},
{
  "type": "node",
  "id": 2674472356,
  "lat": 50.3038163,
  "lon": 44.8266397,
  "tags": {
    "tourism": "hotel"
  }
},
{
  "type": "node",
  "id": 2702425214,
  "lat": 50.2971049,
  "lon": 57.1331031,
  "tags": {
    "description": "гостиничный комплекс",
    "name": "Айхан",
    "tourism": "hotel"
  }
},
{
  "type": "node",
  "id": 2723888861,
  "lat": 53.9484151,
  "lon": 55.9157356,
  "tags": {
    "name": "Нурлы",
    "tourism": "hotel"
  }
},
{
  "type": "node",
  "id": 2723888867,
  "lat": 53.6543253,
  "lon": 55.8464629,
  "tags": {
    "tourism": "hotel"
  }
},
{
  "type": "node",
  "id": 2723888870,
  "lat": 53.6549032,
  "lon": 55.8466602,
  "tags": {
    "tourism": "hotel"
  }
},
{
  "type": "node",
  "id": 2771803255,
  "lat": 51.7912062,
  "lon": 55.1707873,
  "tags": {
    "addr:city": "Оренбург",
    "addr:housenumber": "50",
    "addr:street": "улица Мира",
    "name": "Дельфин",
    "tourism": "hotel"
  }
},
{
  "type": "node",
  "id": 2777308508,
  "lat": 52.9818476,
  "lon": 49.6928401,
  "tags": {
    "name": "Гостиный Двор",
    "phone": "+7 846 3922615",
    "tourism": "hotel"
  }
},
{
  "type": "node",
  "id": 2793320841,
  "lat": 51.7749948,
  "lon": 55.1052616,
  "tags": {
    "addr:city": "Оренбург",
    "addr:housenumber": "59",
    "addr:street": "Рыбаковская улица",
    "name": "Золотой слон",
    "tourism": "hotel"
  }
},
{
  "type": "node",
  "id": 2799205218,
  "lat": 48.7150417,
  "lon": 46.2599523,
  "tags": {
    "tourism": "hotel"
  }
},
{
  "type": "node",
  "id": 2833947051,
  "lat": 53.4263502,
  "lon": 58.9813498,
  "tags": {
    "name": "Корона",
    "tourism": "hotel"
  }
},
{
  "type": "node",
  "id": 2867173908,
  "lat": 48.8119611,
  "lon": 44.8088070,
  "tags": {
    "name": "Регион-Транс",
    "tourism": "hotel"
  }
},
{
  "type": "node",
  "id": 2894780817,
  "lat": 53.2210363,
  "lon": 50.6299678,
  "tags": {
    "contact:email": "lider.kinel@mail.ru",
    "contact:phone": "+7 846 6321165;+7 846 6321284",
    "name": "Маяк",
    "name:ru": "Маяк",
    "opening_hours": "24/7",
    "tourism": "hotel"
  }
},
{
  "type": "node",
  "id": 2928863853,
  "lat": 54.5911475,
  "lon": 46.0818533,
  "tags": {
    "description": "5 номеров, 8 мест",
    "name": "Гостиница Дружба",
    "phone": "+7 (83434) 2-13-05",
    "tourism": "hotel"
  }
},
{
  "type": "node",
  "id": 2930975386,
  "lat": 50.2922996,
  "lon": 57.1593270,
  "tags": {
    "addr:city": "Актобе",
    "addr:housenumber": "56",
    "addr:street": "Әбілқайыр хан даңғылы",
    "check_date": "2022-09-24",
    "internet_access": "wlan",
    "internet_access:fee": "customers",
    "level": "0",
    "name": "Жомарт",
    "name:ru": "Жомарт",
    "tourism": "hotel"
  }
},
{
  "type": "node",
  "id": 2943342912,
  "lat": 51.5412321,
  "lon": 46.0117819,
  "tags": {
    "contact:website": "http://www.hotel-xo.info/",
    "name": "Hotel X&O",
    "tourism": "hotel"
  }
},
{
  "type": "node",
  "id": 3025595515,
  "lat": 52.0452267,
  "lon": 47.7863084,
  "tags": {
    "name": "Гостиница \"Берег\"",
    "tourism": "hotel"
  }
},
{
  "type": "node",
  "id": 3025595516,
  "lat": 52.0449505,
  "lon": 47.7901129,
  "tags": {
    "name": "Гостиница \"Изумруд\"",
    "tourism": "hotel"
  }
},
{
  "type": "node",
  "id": 3032447925,
  "lat": 48.7079203,
  "lon": 44.5139821,
  "tags": {
    "addr:city": "Волгоград",
    "addr:housenumber": "12",
    "addr:postcode": "400131",
    "addr:street": "улица Мира",
    "name": "Волгоград",
    "phone": "+7 (8442) 55-19-55",
    "tourism": "hotel",
    "website": "http://www.hotelvolgograd.ru/",
    "wikidata": "Q23901845",
    "wikipedia": "ru:Волгоград (гостиница)"
  }
},
{
  "type": "node",
  "id": 3032447928,
  "lat": 48.7088262,
  "lon": 44.5174907,
  "tags": {
    "fire_operator": "RU-VGG-1-3",
    "fire_rank": "2",
    "name": "Старый Сталинград",
    "name:de": "Das alte Stalingrad",
    "tourism": "hotel"
  }
},
{
  "type": "node",
  "id": 3045955033,
  "lat": 50.8366897,
  "lon": 40.5848965,
  "tags": {
    "tourism": "hotel"
  }
},
{
  "type": "node",
  "id": 3076922199,
  "lat": 50.4637008,
  "lon": 41.0198121,
  "tags": {
    "name": "Ям",
    "tourism": "hotel"
  }
},
{
  "type": "node",
  "id": 3100303820,
  "lat": 49.0584830,
  "lon": 44.8189128,
  "tags": {
    "name": "Дубовка",
    "tourism": "hotel"
  }
},
{
  "type": "node",
  "id": 3100304322,
  "lat": 49.0640441,
  "lon": 44.8208544,
  "tags": {
    "name": "Турист",
    "tourism": "hotel"
  }
},
{
  "type": "node",
  "id": 3100304323,
  "lat": 49.0612057,
  "lon": 44.8180386,
  "tags": {
    "name": "Турист",
    "tourism": "hotel"
  }
},
{
  "type": "node",
  "id": 3132560237,
  "lat": 52.6484920,
  "lon": 42.6229001,
  "tags": {
    "name": "Родничок",
    "name:ru": "Родничок",
    "tourism": "hotel"
  }
},
{
  "type": "node",
  "id": 3134792587,
  "lat": 51.4873880,
  "lon": 45.9022237,
  "tags": {
    "tourism": "hotel"
  }
},
{
  "type": "node",
  "id": 3151227436,
  "lat": 51.2871567,
  "lon": 46.8661699,
  "tags": {
    "source": "guess",
    "tourism": "hotel"
  }
},
{
  "type": "node",
  "id": 3188073260,
  "lat": 50.3971577,
  "lon": 41.0134747,
  "tags": {
    "tourism": "hotel"
  }
},
{
  "type": "node",
  "id": 3221420845,
  "lat": 53.5314606,
  "lon": 49.4524953,
  "tags": {
    "name": "Салют",
    "tourism": "hotel"
  }
},
{
  "type": "node",
  "id": 3221804601,
  "lat": 54.7141053,
  "lon": 55.9968675,
  "tags": {
    "internet_access": "wlan",
    "internet_access:fee": "no",
    "name": "Иремель",
    "phone": "+7 347 2798731;+7 347 2798732;+7 917 4944292",
    "tourism": "hotel",
    "website": "https://iremelhotel.ru/"
  }
},
{
  "type": "node",
  "id": 3239580601,
  "lat": 50.2759800,
  "lon": 57.2276280,
  "tags": {
    "addr:city": "Актобе",
    "addr:housenumber": "11",
    "addr:street": "Матросова",
    "name": "Сая",
    "tourism": "hotel"
  }
},
{
  "type": "node",
  "id": 3269205499,
  "lat": 50.2617098,
  "lon": 57.2233966,
  "tags": {
    "name": "Авиатор",
    "tourism": "hotel"
  }
},
{
  "type": "node",
  "id": 3287433050,
  "lat": 49.9335676,
  "lon": 43.3663273,
  "tags": {
    "addr:street": "«Каспий»",
    "internet_access": "wlan",
    "name": "Мотодом",
    "name:ru": "Мотодом",
    "opening_hours": "24/7",
    "tourism": "hotel"
  }
},
{
  "type": "node",
  "id": 3298084824,
  "lat": 48.7274639,
  "lon": 44.5218313,
  "tags": {
    "name": "Frant Hotel",
    "tourism": "hotel"
  }
},
{
  "type": "node",
  "id": 3332262027,
  "lat": 48.7665241,
  "lon": 44.4776891,
  "tags": {
    "addr:city": "Волгоград",
    "addr:housenumber": "6",
    "addr:street": "улица 51-й Гвардейской",
    "name": "Олимпия",
    "tourism": "hotel",
    "website": "http://gost-olympia.ru/"
  }
},
{
  "type": "node",
  "id": 3365887830,
  "lat": 52.5858155,
  "lon": 41.4956367,
  "tags": {
    "tourism": "hotel"
  }
},
{
  "type": "node",
  "id": 3414045467,
  "lat": 48.8193372,
  "lon": 46.7711958,
  "tags": {
    "tourism": "hotel"
  }
},
{
  "type": "node",
  "id": 3424336251,
  "lat": 50.4433791,
  "lon": 40.1306715,
  "tags": {
    "name": "Уют",
    "phone": "+7 47362 27527, +7 47362 29682",
    "tourism": "hotel"
  }
},
{
  "type": "node",
  "id": 3428343518,
  "lat": 53.0860000,
  "lon": 46.6546651,
  "tags": {
    "name": "Россия",
    "tourism": "hotel"
  }
},
{
  "type": "node",
  "id": 3456843863,
  "lat": 48.6909139,
  "lon": 44.4546078,
  "tags": {
    "tourism": "hotel"
  }
},
{
  "type": "node",
  "id": 3466171893,
  "lat": 52.7223057,
  "lon": 58.6739553,
  "tags": {
    "addr:city": "Сибай",
    "addr:housenumber": "44/1",
    "addr:street": "улица Заки Валиди",
    "name": "Золотая Юрта",
    "tourism": "hotel"
  }
},
{
  "type": "node",
  "id": 3486462975,
  "lat": 51.5337364,
  "lon": 45.9881871,
  "tags": {
    "addr:housenumber": "2",
    "addr:street": "Вокзальная улица",
    "name": "Акрополис",
    "source": "survey",
    "tourism": "hotel"
  }
},
{
  "type": "node",
  "id": 3501138424,
  "lat": 51.5880010,
  "lon": 45.9323885,
  "tags": {
    "fixme": "местоположение",
    "tourism": "hotel"
  }
},
{
  "type": "node",
  "id": 3575068493,
  "lat": 54.4119751,
  "lon": 40.4174727,
  "tags": {
    "name": "У Беды",
    "tourism": "hotel"
  }
},
{
  "type": "node",
  "id": 3608778162,
  "lat": 51.1574140,
  "lon": 53.0265957,
  "tags": {
    "name": "Samal",
    "tourism": "hotel",
    "website": "http://samal.aksalam.kz/"
  }
},
{
  "type": "node",
  "id": 3639621950,
  "lat": 53.4901544,
  "lon": 49.2951165,
  "tags": {
    "name": "Шамони",
    "name:en": "Shamoni",
    "tourism": "hotel"
  }
},
{
  "type": "node",
  "id": 3644008104,
  "lat": 51.5359622,
  "lon": 46.0065708,
  "tags": {
    "internet_access": "wlan",
    "internet_access:fee": "no",
    "name": "Богемия на Вавилова",
    "operator": "Богемия",
    "tourism": "hotel"
  }
},
{
  "type": "node",
  "id": 3665488998,
  "lat": 50.4423697,
  "lon": 41.0258684,
  "tags": {
    "name": "Застава",
    "opening_hours": "24/7",
    "tourism": "hotel"
  }
},
{
  "type": "node",
  "id": 3675454588,
  "lat": 50.4037924,
  "lon": 41.0211843,
  "tags": {
    "tourism": "hotel"
  }
},
{
  "type": "node",
  "id": 3677344387,
  "lat": 54.8194244,
  "lon": 56.0631785,
  "tags": {
    "name": "Влада",
    "tourism": "hotel"
  }
},
{
  "type": "node",
  "id": 3685929584,
  "lat": 54.6735429,
  "lon": 55.8064955,
  "tags": {
    "addr:city": "Уфа",
    "addr:housenumber": "59/1",
    "addr:postcode": "450024",
    "addr:street": "Центральная улица",
    "name": "Ак керман",
    "operator": "ООО \"Ак керман\"",
    "phone": "+7 987 4766577",
    "smoking": "no",
    "tourism": "hotel",
    "website": "https://hotel57.ru/"
  }
},
{
  "type": "node",
  "id": 3692253160,
  "lat": 51.3664292,
  "lon": 42.0759276,
  "tags": {
    "email": "hotel-russia36@yandex.ru",
    "internet_access": "wlan",
    "name": "Россiя",
    "name:en": "Russia",
    "name:ru": "Россiя",
    "opening_hours": "24/7",
    "phone": "+7 47354 60260",
    "tourism": "hotel",
    "website": "http://russia-bg.ru"
  }
},
{
  "type": "node",
  "id": 3698648733,
  "lat": 54.4100240,
  "lon": 56.7847964,
  "tags": {
    "tourism": "hotel"
  }
},
{
  "type": "node",
  "id": 3714703065,
  "lat": 53.1446675,
  "lon": 44.9638069,
  "tags": {
    "addr:city": "Пенза",
    "addr:housenumber": "24",
    "addr:street": "улица 40 лет Октября",
    "name": "Гостиница Волгоавтогаз",
    "tourism": "hotel"
  }
},
{
  "type": "node",
  "id": 3784452676,
  "lat": 54.7569791,
  "lon": 56.0234923,
  "tags": {
    "name": "Свояк",
    "tourism": "hotel"
  }
},
{
  "type": "node",
  "id": 3917991982,
  "lat": 52.7269815,
  "lon": 41.4473950,
  "tags": {
    "tourism": "hotel"
  }
},
{
  "type": "node",
  "id": 3930244289,
  "lat": 54.4973774,
  "lon": 55.9052105,
  "tags": {
    "tourism": "hotel"
  }
},
{
  "type": "node",
  "id": 3948488390,
  "lat": 51.5495806,
  "lon": 46.0249305,
  "tags": {
    "contact:website": "http://www.hotellotus.ru/",
    "name": "Лотос",
    "tourism": "hotel"
  }
},
{
  "type": "node",
  "id": 3982808057,
  "lat": 51.5405822,
  "lon": 46.0401216,
  "tags": {
    "name": "New York City",
    "tourism": "hotel"
  }
},
{
  "type": "node",
  "id": 3986661653,
  "lat": 52.7633606,
  "lon": 52.2493381,
  "tags": {
    "name": "Дружба",
    "tourism": "hotel"
  }
},
{
  "type": "node",
  "id": 4006139359,
  "lat": 49.4185336,
  "lon": 46.8579635,
  "tags": {
    "tourism": "hotel"
  }
},
{
  "type": "node",
  "id": 4037018484,
  "lat": 51.2245633,
  "lon": 51.3734664,
  "tags": {
    "contact:fax": "51-18-36",
    "contact:phone": "51-17-78",
    "name": "Женис",
    "tourism": "hotel"
  }
},
{
  "type": "node",
  "id": 4056402467,
  "lat": 51.2144481,
  "lon": 51.3649570,
  "tags": {
    "contact:website": "http://vegus.kz/apart-otel/",
    "internet_access": "wlan",
    "internet_access:fee": "no",
    "name": "VEGUS",
    "stars": "4",
    "tourism": "hotel"
  }
},
{
  "type": "node",
  "id": 4059843611,
  "lat": 53.2169853,
  "lon": 50.1887225,
  "tags": {
    "name": "\"Октябрьская\"",
    "tourism": "hotel"
  }
},
{
  "type": "node",
  "id": 4078353390,
  "lat": 52.6728543,
  "lon": 41.4612878,
  "tags": {
    "tourism": "hotel"
  }
},
{
  "type": "node",
  "id": 4086232491,
  "lat": 52.7221266,
  "lon": 41.4439485,
  "tags": {
    "addr:housenumber": "34",
    "addr:street": "Коммунальная улица",
    "tourism": "hotel"
  }
},
{
  "type": "node",
  "id": 4096845901,
  "lat": 53.2156157,
  "lon": 50.2474902,
  "tags": {
    "addr:housenumber": "4",
    "addr:street": "Роликовый переулок",
    "name": "Уют",
    "tourism": "hotel"
  }
},
{
  "type": "node",
  "id": 4096972236,
  "lat": 50.2748833,
  "lon": 57.2313774,
  "tags": {
    "addr:city": "Актобе",
    "addr:housenumber": "29",
    "addr:street": "Заводская",
    "name": "Гостиница \"Хан-Тенгри\"",
    "tourism": "hotel"
  }
},
{
  "type": "node",
  "id": 4102773991,
  "lat": 51.8825125,
  "lon": 55.0539080,
  "tags": {
    "addr:housenumber": "1А",
    "addr:street": "Фермерская улица",
    "internet_access": "wlan",
    "name": "Встреча",
    "opening_hours": "24/7",
    "phone": "+79033924495",
    "tourism": "hotel"
  }
},
{
  "type": "node",
  "id": 4107996727,
  "lat": 51.5434438,
  "lon": 46.0023499,
  "tags": {
    "name": "На Аткарской",
    "tourism": "hotel"
  }
},
{
  "type": "node",
  "id": 4109742137,
  "lat": 51.5312879,
  "lon": 46.0277276,
  "tags": {
    "brand": "Bohemia",
    "contact:phone": "+7 8452 517100",
    "contact:website": "http://www.bohemiahotel.ru/",
    "description": "Частная резиденция",
    "name": "Богемия",
    "tourism": "hotel"
  }
},
{
  "type": "node",
  "id": 4109742138,
  "lat": 51.5301294,
  "lon": 46.0310920,
  "tags": {
    "addr:housenumber": "15/1",
    "addr:postcode": "410012",
    "addr:street": "проспект Столыпина",
    "brand": "Bohemia",
    "contact:phone": "+7 8452 517100",
    "contact:website": "http://www.bohemiahotel.ru/",
    "description": "Отель",
    "name": "Пионер-Люкс",
    "tourism": "hotel"
  }
},
{
  "type": "node",
  "id": 4116377984,
  "lat": 52.2645375,
  "lon": 49.1386724,
  "tags": {
    "internet_access": "wlan",
    "name": "кемпинг \"Оазис\"",
    "name:ru": "кемпинг \"Оазис\"",
    "tourism": "hotel"
  }
},
{
  "type": "node",
  "id": 4118485951,
  "lat": 51.9150342,
  "lon": 48.3322728,
  "tags": {
    "name": "Гостиница",
    "tourism": "hotel"
  }
},
{
  "type": "node",
  "id": 4118485962,
  "lat": 51.9162573,
  "lon": 48.3307674,
  "tags": {
    "name": "Гостиница",
    "tourism": "hotel"
  }
},
{
  "type": "node",
  "id": 4134865862,
  "lat": 51.0353221,
  "lon": 45.6257773,
  "tags": {
    "name": "Гостиница",
    "tourism": "hotel"
  }
},
{
  "type": "node",
  "id": 4134865865,
  "lat": 51.0320785,
  "lon": 45.6262096,
  "tags": {
    "name": "Гостиница",
    "tourism": "hotel"
  }
},
{
  "type": "node",
  "id": 4134865874,
  "lat": 51.0307239,
  "lon": 45.6257834,
  "tags": {
    "name": "Гостиница",
    "tourism": "hotel"
  }
},
{
  "type": "node",
  "id": 4134925450,
  "lat": 50.1285063,
  "lon": 45.3755503,
  "tags": {
    "name": "Елена",
    "tourism": "hotel"
  }
},
{
  "type": "node",
  "id": 4134962796,
  "lat": 50.1050498,
  "lon": 45.3723616,
  "tags": {
    "name": "Смак",
    "tourism": "hotel"
  }
},
{
  "type": "node",
  "id": 4146348031,
  "lat": 53.1866169,
  "lon": 50.0785295,
  "tags": {
    "internet_access": "wlan",
    "name": "Россия",
    "name:en": "Hotel Rossiya",
    "name:ru": "Отель Россия",
    "opening_hours": "24/7",
    "phone": "+7 (846) 339-03-97",
    "tourism": "hotel",
    "website": "https://www.hotel-rossia.ru/"
  }
},
{
  "type": "node",
  "id": 4150880792,
  "lat": 49.1273492,
  "lon": 44.8179220,
  "tags": {
    "tourism": "hotel"
  }
},
{
  "type": "node",
  "id": 4150880797,
  "lat": 49.1270421,
  "lon": 44.8174621,
  "tags": {
    "tourism": "hotel"
  }
},
{
  "type": "node",
  "id": 4158660289,
  "lat": 53.9319943,
  "lon": 51.3305369,
  "tags": {
    "name": "Антоновка",
    "opening_hours": "24/7",
    "tourism": "hotel"
  }
},
{
  "type": "node",
  "id": 4175935032,
  "lat": 52.7207606,
  "lon": 58.6852626,
  "tags": {
    "name": "Evrasia",
    "tourism": "hotel"
  }
},
{
  "type": "node",
  "id": 4179185980,
  "lat": 53.1664298,
  "lon": 45.0196365,
  "tags": {
    "name": "Сура",
    "tourism": "hotel"
  }
},
{
  "type": "node",
  "id": 4196757523,
  "lat": 53.2058682,
  "lon": 50.2846975,
  "tags": {
    "name": "Русская тройка",
    "tourism": "hotel"
  }
},
{
  "type": "node",
  "id": 4216958390,
  "lat": 51.2497531,
  "lon": 51.3101864,
  "tags": {
    "name": "Арыстан",
    "tourism": "hotel"
  }
},
{
  "type": "node",
  "id": 4218199194,
  "lat": 53.1735711,
  "lon": 45.0036591,
  "tags": {
    "name": "Тамбовская-19",
    "tourism": "hotel"
  }
},
{
  "type": "node",
  "id": 4219262224,
  "lat": 53.2390281,
  "lon": 50.2080488,
  "tags": {
    "addr:housenumber": "125Б",
    "addr:street": "Московское шоссе",
    "name": "Ариадна",
    "tourism": "hotel"
  }
},
{
  "type": "node",
  "id": 4226180361,
  "lat": 54.5907902,
  "lon": 46.0971278,
  "tags": {
    "description": "5 номеров, 7 мест",
    "name": "Людмила",
    "phone": "+7 (83434) 2-17-33, +7 (909) 328-28-28",
    "tourism": "hotel"
  }
},
{
  "type": "node",
  "id": 4226180362,
  "lat": 54.8480293,
  "lon": 46.2355011,
  "tags": {
    "description": "4 номера",
    "name": "МАИР",
    "phone": "+7 (83431) 3-35-45; +7 (927) 27-479-82",
    "tourism": "hotel"
  }
},
{
  "type": "node",
  "id": 4226484680,
  "lat": 53.1799395,
  "lon": 45.0039168,
  "tags": {
    "internet_access": "wlan",
    "internet_access:fee": "no",
    "name": "Валенсия",
    "rooms": "10",
    "tourism": "hotel"
  }
},
{
  "type": "node",
  "id": 4233787122,
  "lat": 53.2459584,
  "lon": 50.1735873,
  "tags": {
    "addr:housenumber": "274",
    "addr:street": "улица Советской Армии",
    "name": "Пиросмани",
    "tourism": "hotel"
  }
},
{
  "type": "node",
  "id": 4241773789,
  "lat": 51.2192093,
  "lon": 51.3817421,
  "tags": {
    "beds": "4",
    "contact:email": "ayazan@mail.ru",
    "contact:phone": "+7 701 4692411",
    "internet_access": "wlan",
    "internet_access:fee": "no",
    "name": "Победа, апарт отель",
    "tourism": "hotel"
  }
},
{
  "type": "node",
  "id": 4247751989,
  "lat": 53.0843778,
  "lon": 56.4248023,
  "tags": {
    "leisure": "resort",
    "name": "База отдыха \"Газпром\"",
    "resort": "recreation_center",
    "tourism": "hotel"
  }
},
{
  "type": "node",
  "id": 4254577892,
  "lat": 53.0948898,
  "lon": 56.4332384,
  "tags": {
    "leisure": "resort",
    "name": "База отдыха \"Нугуш\"",
    "opening_hours": "24/7",
    "resort": "recreation_center",
    "tourism": "hotel"
  }
},
{
  "type": "node",
  "id": 4254745319,
  "lat": 50.2922802,
  "lon": 57.2080149,
  "tags": {
    "email": "a.aldabergenov@list.ru",
    "fax": "87716080999, 8702 3770999",
    "name": "Комфорт",
    "phone": "8(7132) 220443",
    "tourism": "hotel"
  }
},
{
  "type": "node",
  "id": 4256972001,
  "lat": 51.2551781,
  "lon": 51.3522614,
  "tags": {
    "name": "Парк отель",
    "stars": "4",
    "tourism": "hotel"
  }
},
{
  "type": "node",
  "id": 4259739689,
  "lat": 53.4119452,
  "lon": 58.9706344,
  "tags": {
    "name": "Гарант",
    "tourism": "hotel"
  }
},
{
  "type": "node",
  "id": 4259930391,
  "lat": 52.4025607,
  "lon": 41.3910479,
  "tags": {
    "tourism": "hotel"
  }
},
{
  "type": "node",
  "id": 4266782532,
  "lat": 51.7885986,
  "lon": 55.1322258,
  "tags": {
    "name": "Алладин",
    "tourism": "hotel"
  }
},
{
  "type": "node",
  "id": 4267907956,
  "lat": 53.3571745,
  "lon": 55.9381459,
  "tags": {
    "name": "Башкортостан",
    "tourism": "hotel"
  }
},
{
  "type": "node",
  "id": 4268621689,
  "lat": 48.9307478,
  "lon": 40.4552130,
  "tags": {
    "name": "Отель 858",
    "tourism": "hotel"
  }
},
{
  "type": "node",
  "id": 4269472099,
  "lat": 49.6027461,
  "lon": 40.5481940,
  "tags": {
    "name": "Роза Ветров",
    "opening_hours": "24/7",
    "phone": "+74736641813",
    "tourism": "hotel"
  }
},
{
  "type": "node",
  "id": 4269649791,
  "lat": 54.6680211,
  "lon": 55.8242358,
  "tags": {
    "addr:housenumber": "59/3 к2",
    "addr:street": "Центральная улица",
    "email": "uato1@mail.ru",
    "internet_access": "wlan",
    "name": "УТЭП",
    "opening_hours": "24/7",
    "phone": "+7 917 7685668",
    "tourism": "hotel"
  }
},
{
  "type": "node",
  "id": 4277714089,
  "lat": 52.6479653,
  "lon": 41.4428008,
  "tags": {
    "name": "Пирамида",
    "tourism": "hotel"
  }
},
{
  "type": "node",
  "id": 4295619570,
  "lat": 54.4913525,
  "lon": 53.4435379,
  "tags": {
    "name": "Акият",
    "opening_hours": "24/7",
    "phone": "+7 34767 50909",
    "tourism": "hotel",
    "website": "https://akiyat-hotel.ru/"
  }
},
{
  "type": "node",
  "id": 4307121489,
  "lat": 54.2707073,
  "lon": 52.9736058,
  "tags": {
    "tourism": "hotel"
  }
},
{
  "type": "node",
  "id": 4310540718,
  "lat": 48.7225575,
  "lon": 44.5003816,
  "tags": {
    "internet_access": "wlan",
    "name": "Миротель",
    "stars": "3",
    "tourism": "hotel"
  }
},
{
  "type": "node",
  "id": 4315671900,
  "lat": 50.3186131,
  "lon": 57.1505531,
  "tags": {
    "addr:city": "Актобе",
    "addr:housenumber": "5/1",
    "addr:street": "Бейбитшилик пр.",
    "name": "Гостиница \"Flamingo\"",
    "tourism": "hotel"
  }
},
{
  "type": "node",
  "id": 4315757389,
  "lat": 50.2959253,
  "lon": 57.1523553,
  "tags": {
    "name": "Общежитие ЗКГМУ",
    "tourism": "hotel"
  }
},
{
  "type": "node",
  "id": 4316189393,
  "lat": 48.7218727,
  "lon": 45.2158793,
  "tags": {
    "contact:phone": "+7(905)3913438",
    "tourism": "hotel"
  }
},
{
  "type": "node",
  "id": 4316752922,
  "lat": 50.2935053,
  "lon": 57.1472345,
  "tags": {
    "name": "Гостиничный комплекс \"Султан\"",
    "tourism": "hotel"
  }
},
{
  "type": "node",
  "id": 4316883556,
  "lat": 49.0636659,
  "lon": 44.8241946,
  "tags": {
    "name": "Уют",
    "sauna": "yes",
    "tourism": "hotel"
  }
},
{
  "type": "node",
  "id": 4316884353,
  "lat": 49.8541370,
  "lon": 45.2275130,
  "tags": {
    "tourism": "hotel"
  }
},
{
  "type": "node",
  "id": 4316886428,
  "lat": 49.0597382,
  "lon": 44.8222351,
  "tags": {
    "addr:housenumber": "57",
    "addr:street": "Московская улица",
    "description": "Находится в центре г. Дубовка, в 40 км от города Волгограда. Все номера имеют современные санузлы (душ + туалет), балкон, сплит-системы, большие телевизоры, холодильники и хороший, уверенный Wi-Fi.",
    "email": "alisa@mail.ru",
    "fire_rank": "2",
    "internet_access": "wlan",
    "name": "Алиса",
    "name:en": "Alice",
    "name:ru": "Алиса",
    "opening_hours": "24/7",
    "phone": "+7 927 5394244",
    "tourism": "hotel",
    "website": "http://www.hotel-alisa-dubovka.ru"
  }
},
{
  "type": "node",
  "id": 4316887466,
  "lat": 49.8560374,
  "lon": 45.2258661,
  "tags": {
    "tourism": "hotel"
  }
},
{
  "type": "node",
  "id": 4316887468,
  "lat": 49.9511871,
  "lon": 45.1873872,
  "tags": {
    "tourism": "hotel"
  }
},
{
  "type": "node",
  "id": 4316887470,
  "lat": 49.9519327,
  "lon": 45.1867139,
  "tags": {
    "tourism": "hotel"
  }
},
{
  "type": "node",
  "id": 4317070748,
  "lat": 50.0893724,
  "lon": 45.3542615,
  "tags": {
    "name": "Алла",
    "tourism": "hotel"
  }
},
{
  "type": "node",
  "id": 4317086230,
  "lat": 50.0872781,
  "lon": 45.3531886,
  "tags": {
    "name": "Околица",
    "tourism": "hotel"
  }
},
{
  "type": "node",
  "id": 4320726407,
  "lat": 51.9851252,
  "lon": 46.6637263,
  "tags": {
    "name": "У Роберта",
    "tourism": "hotel"
  }
},
{
  "type": "node",
  "id": 4324852231,
  "lat": 50.2905317,
  "lon": 57.1314824,
  "tags": {
    "addr:city": "Актобе",
    "addr:housenumber": "28Е",
    "addr:street": "Санкибай батыра пр.",
    "name": "Royal Hotel",
    "stars": "4",
    "tourism": "hotel"
  }
},
{
  "type": "node",
  "id": 4325061392,
  "lat": 51.8421038,
  "lon": 55.1191131,
  "tags": {
    "name": "Армада",
    "tourism": "hotel"
  }
},
{
  "type": "node",
  "id": 4328945692,
  "lat": 52.7224573,
  "lon": 41.3839016,
  "tags": {
    "addr:country": "RU",
    "addr:housenumber": "75 к1",
    "name": "Оазис",
    "tourism": "hotel"
  }
},
{
  "type": "node",
  "id": 4332240755,
  "lat": 54.4819528,
  "lon": 53.5222295,
  "tags": {
    "name": "Экспресс-Отель",
    "name:en": "HOSTEL",
    "tourism": "hotel"
  }
},
{
  "type": "node",
  "id": 4333394315,
  "lat": 54.7192822,
  "lon": 55.9487818,
  "tags": {
    "check_date": "2022-09-16",
    "name": "Sheratonplaza",
    "name:en": "Congress Hotel Ufa",
    "tourism": "hotel",
    "website": "https://www.booking.com/Share-XdEw4p"
  }
},
{
  "type": "node",
  "id": 4344788389,
  "lat": 54.9771256,
  "lon": 60.3597125,
  "tags": {
    "name": "Русь",
    "tourism": "hotel"
  }
},
{
  "type": "node",
  "id": 4353360295,
  "lat": 54.7669599,
  "lon": 42.2620471,
  "tags": {
    "name": "Заря",
    "tourism": "hotel"
  }
},
{
  "type": "node",
  "id": 4358954493,
  "lat": 54.0574571,
  "lon": 44.9485838,
  "tags": {
    "addr:housenumber": "5",
    "addr:street": "Привокзальная площадь",
    "name": "Юбилейная",
    "name:ru": "Юбилейная",
    "operator": "Аверкин В.А",
    "phone": "88345164712",
    "tourism": "hotel"
  }
},
{
  "type": "node",
  "id": 4359214292,
  "lat": 51.5949596,
  "lon": 46.3324998,
  "tags": {
    "name": "СКАЗКА",
    "source:name": "survey",
    "tourism": "hotel"
  }
},
{
  "type": "node",
  "id": 4365168007,
  "lat": 50.2607192,
  "lon": 52.6063556,
  "tags": {
    "name": "СЫРЫМ",
    "tourism": "hotel"
  }
},
{
  "type": "node",
  "id": 4365177291,
  "lat": 50.2608482,
  "lon": 52.6034933,
  "tags": {
    "name": "Алаш",
    "tourism": "hotel"
  }
},
{
  "type": "node",
  "id": 4373535092,
  "lat": 51.1967026,
  "lon": 58.3251533,
  "tags": {
    "name": "Новотрекс",
    "name:ru": "Новотрекс",
    "tourism": "hotel"
  }
},
{
  "type": "node",
  "id": 4375609895,
  "lat": 54.8331667,
  "lon": 56.9804170,
  "tags": {
    "name": "Байтуган",
    "tourism": "hotel"
  }
},
{
  "type": "node",
  "id": 4377782790,
  "lat": 54.8431683,
  "lon": 58.4409874,
  "tags": {
    "name": "русский",
    "name:ru": "русский",
    "tourism": "hotel"
  }
},
{
  "type": "node",
  "id": 4381891492,
  "lat": 53.3957895,
  "lon": 58.9829823,
  "tags": {
    "internet_access": "wlan",
    "name": "Бизнес-Визит",
    "name:ru": "Бизнес-Визит",
    "tourism": "hotel"
  }
},
{
  "type": "node",
  "id": 4385510891,
  "lat": 54.9822787,
  "lon": 60.3677136,
  "tags": {
    "name": "Зори Урала",
    "name:ru": "Зори Урала",
    "tourism": "hotel"
  }
},
{
  "type": "node",
  "id": 4387336389,
  "lat": 54.7355440,
  "lon": 55.9754907,
  "tags": {
    "name": "отель В центре",
    "name:ru": "отель В центре",
    "tourism": "hotel"
  }
},
{
  "type": "node",
  "id": 4394399342,
  "lat": 52.8048116,
  "lon": 51.1722647,
  "tags": {
    "name": "Надежда",
    "tourism": "hotel"
  }
},
{
  "type": "node",
  "id": 4401150131,
  "lat": 52.6993471,
  "lon": 41.4741772,
  "tags": {
    "tourism": "hotel"
  }
},
{
  "type": "node",
  "id": 4403480144,
  "lat": 52.0853827,
  "lon": 50.8596198,
  "tags": {
    "name": "Hostel Vojage",
    "opening_hours": "24/7",
    "phone": "+79467221170",
    "tourism": "hotel"
  }
},
{
  "type": "node",
  "id": 4405239089,
  "lat": 53.5352518,
  "lon": 50.3107846,
  "tags": {
    "name": "Парк отель Forrest",
    "name:ru": "Парк отель Forrest",
    "tourism": "hotel"
  }
},
{
  "type": "node",
  "id": 4405440391,
  "lat": 54.9898437,
  "lon": 49.0881069,
  "tags": {
    "addr:postcode": "422851",
    "contact:phone": "+7 937 6200820",
    "email": "info@kolgaliresort.com",
    "name": "Кол Гали Resort & Spa",
    "name:en": "Kol Gali Resort & Spa",
    "name:ru": "Кол Гали Resort & Spa",
    "name:tt": "Кол Гали Resort & Spa",
    "operator": "Фонд Возрождения Культурно-Истоического Наследия Татарстана",
    "tourism": "hotel"
  }
},
{
  "type": "node",
  "id": 4408484752,
  "lat": 51.1990308,
  "lon": 42.2433068,
  "tags": {
    "tourism": "hotel"
  }
},
{
  "type": "node",
  "id": 4414575609,
  "lat": 49.0751823,
  "lon": 54.6660035,
  "tags": {
    "operator": "Исатай",
    "tourism": "hotel"
  }
},
{
  "type": "node",
  "id": 4416273321,
  "lat": 54.7504754,
  "lon": 56.0322310,
  "tags": {
    "name": "Park City",
    "tourism": "hotel"
  }
},
{
  "type": "node",
  "id": 4425219059,
  "lat": 54.9942316,
  "lon": 60.3946480,
  "tags": {
    "name": "Гостиница",
    "tourism": "hotel"
  }
},
{
  "type": "node",
  "id": 4430114790,
  "lat": 50.2449171,
  "lon": 58.4301582,
  "tags": {
    "internet_access": "wlan",
    "name": "Уют",
    "name:ru": "Уют",
    "opening_hours": "24/7",
    "phone": "+77711870764",
    "tourism": "hotel"
  }
},
{
  "type": "node",
  "id": 4432212160,
  "lat": 53.8578771,
  "lon": 46.3558526,
  "tags": {
    "tourism": "hotel"
  }
},
{
  "type": "node",
  "id": 4445889521,
  "lat": 52.7238114,
  "lon": 41.4276468,
  "tags": {
    "name": "Отель",
    "tourism": "hotel"
  }
},
{
  "type": "node",
  "id": 4453036225,
  "lat": 53.1863564,
  "lon": 45.0141179,
  "tags": {
    "addr:city": "Пенза",
    "addr:housenumber": "8А",
    "addr:street": "Московская улица",
    "internet_access": "wlan",
    "internet_access:fee": "no",
    "name": "Старый город",
    "rooms": "14",
    "smoking": "outside",
    "tourism": "hotel"
  }
},
{
  "type": "node",
  "id": 4473390194,
  "lat": 52.8244756,
  "lon": 41.5072931,
  "tags": {
    "tourism": "hotel"
  }
},
{
  "type": "node",
  "id": 4488050029,
  "lat": 50.2802562,
  "lon": 57.2219831,
  "tags": {
    "name": "Альбион",
    "tourism": "hotel"
  }
},
{
  "type": "node",
  "id": 4491057990,
  "lat": 52.0760307,
  "lon": 47.4797821,
  "tags": {
    "addr:street": "Радужная улица",
    "tourism": "hotel"
  }
},
{
  "type": "node",
  "id": 4491295391,
  "lat": 52.0459483,
  "lon": 47.3855240,
  "tags": {
    "name": "Россия",
    "name:ru": "Россия",
    "tourism": "hotel"
  }
},
{
  "type": "node",
  "id": 4496897790,
  "lat": 54.0211079,
  "lon": 41.7147735,
  "tags": {
    "addr:street": "Революционная улица",
    "name": "Турист",
    "name:en": "Турист",
    "name:ru": "Турист",
    "tourism": "hotel"
  }
},
{
  "type": "node",
  "id": 4504901390,
  "lat": 51.1545259,
  "lon": 54.9870503,
  "tags": {
    "addr:street": "Садовая улица",
    "name": "Зорянка",
    "tourism": "hotel"
  }
},
{
  "type": "node",
  "id": 4528173525,
  "lat": 53.0704744,
  "lon": 50.0270002,
  "tags": {
    "tourism": "hotel"
  }
},
{
  "type": "node",
  "id": 4533461584,
  "lat": 51.2469635,
  "lon": 51.4025726,
  "tags": {
    "internet_access": "wlan",
    "internet_access:fee": "no",
    "name:ru": "Рахат",
    "opening_hours": "24/7",
    "rooms": "35",
    "stars": "3",
    "tourism": "hotel"
  }
},
{
  "type": "node",
  "id": 4533465431,
  "lat": 51.2386236,
  "lon": 51.3805822,
  "tags": {
    "name": "Бивуак",
    "stars": "0",
    "tourism": "hotel"
  }
},
{
  "type": "node",
  "id": 4533470931,
  "lat": 51.2108228,
  "lon": 51.3728622,
  "tags": {
    "fax": "+7 7112 510459",
    "name": "Chagala",
    "name:ru": "Шагала",
    "phone": "+7 7112 509855",
    "stars": "3",
    "tourism": "hotel",
    "website": "https://www.chagalagroup.com/"
  }
},
{
  "type": "node",
  "id": 4533473561,
  "lat": 51.1576625,
  "lon": 53.0249738,
  "tags": {
    "name": "Ренко",
    "tourism": "hotel"
  }
},
{
  "type": "node",
  "id": 4533473587,
  "lat": 51.2495432,
  "lon": 51.4307152,
  "tags": {
    "name": "Ереван",
    "name:ru": "Ереван",
    "tourism": "hotel"
  }
},
{
  "type": "node",
  "id": 4533473904,
  "lat": 51.2243090,
  "lon": 51.4001327,
  "tags": {
    "name": "Айдана",
    "name:ru": "Айдана",
    "tourism": "hotel",
    "website": "http://aidana-complex.kz/"
  }
},
{
  "type": "node",
  "id": 4533473911,
  "lat": 51.1621390,
  "lon": 53.0188601,
  "tags": {
    "name": "Марко Поло",
    "tourism": "hotel"
  }
},
{
  "type": "node",
  "id": 4533474104,
  "lat": 51.1910094,
  "lon": 51.3759365,
  "tags": {
    "email": "reservation@pushkinhotel.com",
    "fax": "+7(7112)513566",
    "internet_access": "wlan",
    "internet_access:fee": "no",
    "name": "Пушкин отель",
    "name:en": "Pushkin hotel",
    "name:ru": "Пушкин отель",
    "phone": "+7(7112)513560, +7(7112)507733",
    "stars": "4",
    "tourism": "hotel",
    "website": "http://ru.pushkinhotel.com"
  }
},
{
  "type": "node",
  "id": 4533474265,
  "lat": 51.2089324,
  "lon": 51.3677801,
  "tags": {
    "email": "sayahat38@mail.ru",
    "fax": "+7 7112 504349",
    "name:ru": "Саяхат",
    "opening_hours": "24/7",
    "phone": "+7 7112 513003",
    "tourism": "hotel",
    "website": "http://www.sayahathotel.kz/"
  }
},
{
  "type": "node",
  "id": 4533474269,
  "lat": 51.2064513,
  "lon": 51.3835367,
  "tags": {
    "name:ru": "Урал",
    "tourism": "hotel"
  }
},
{
  "type": "node",
  "id": 4533474472,
  "lat": 51.2437784,
  "lon": 51.4283913,
  "tags": {
    "email": "victoria-hotel@inbox.ru",
    "fax": "+7 7112 228352",
    "name": "Виктория",
    "name:en": "Victoria",
    "name:ru": "Виктория",
    "phone": "+7 7112 228352, 228346",
    "tourism": "hotel",
    "website": "http://uralsk-victoriahotel.kz/"
  }
},
{
  "type": "node",
  "id": 4533475220,
  "lat": 51.1641385,
  "lon": 53.0387396,
  "tags": {
    "barrier": "fence",
    "email": "nomad_hotel@mail.ru",
    "fax": "+7 (71133) 92557",
    "name": "Nomad",
    "name:ru": "Номад",
    "opening_hours": "24/7",
    "phone": "+7 (71133) 92555",
    "tourism": "hotel",
    "website": "https://nomadhotel.kz/"
  }
},
{
  "type": "node",
  "id": 4534034390,
  "lat": 52.3923066,
  "lon": 41.3997825,
  "tags": {
    "name": "Империал",
    "tourism": "hotel"
  }
},
{
  "type": "node",
  "id": 4541628678,
  "lat": 51.2232513,
  "lon": 51.3806827,
  "tags": {
    "internet_access": "yes",
    "internet_access:fee": "no",
    "name": "Престиж",
    "name:en": "Prestige",
    "name:kk": "Prestige",
    "name:ru": "Престиж",
    "phone": "+7 (7112) 54–22–02",
    "tourism": "hotel"
  }
},
{
  "type": "node",
  "id": 4546715416,
  "lat": 53.5479815,
  "lon": 43.6774209,
  "tags": {
    "description": "1300р. двухместный номер. Телевизор. Туалет, душ. Прокуренно. wifi нет. холодильника нет",
    "name": "У тополя",
    "tourism": "hotel"
  }
},
{
  "type": "node",
  "id": 4551377692,
  "lat": 52.7570084,
  "lon": 41.4529347,
  "tags": {
    "email": "tambovskaya68@bk.ru",
    "internet_access": "wlan",
    "name": "Гостиница Тамбовская",
    "name:en": "Tambovskaya",
    "opening_hours": "24/7",
    "phone": "+7(4752) 637-637",
    "tourism": "hotel",
    "website": "http://www.tambovskaya68.ru"
  }
},
{
  "type": "node",
  "id": 4558551594,
  "lat": 52.0132146,
  "lon": 48.7885333,
  "tags": {
    "addr:housenumber": "82",
    "addr:street": "улица Бубенца",
    "internet_access": "wlan",
    "name": "Гостевой дом",
    "name:en": "Hotel",
    "operator": "Александр",
    "phone": "+79272270317",
    "tourism": "hotel"
  }
},
{
  "type": "node",
  "id": 4561365851,
  "lat": 49.2294662,
  "lon": 50.3166767,
  "tags": {
    "int_name": "Jañaqala LPW jataqxanası",
    "name": "Жаңақала ЛПУ жатақханасы",
    "name:kk": "Жаңақала ЛПУ жатақханасы",
    "name:ru": "Общежитие Жангалинского ЛПУ",
    "tourism": "hotel"
  }
},
{
  "type": "node",
  "id": 4570442415,
  "lat": 51.2053583,
  "lon": 51.3789018,
  "tags": {
    "name": "Урал",
    "name:ru": "Урал",
    "tourism": "hotel"
  }
},
{
  "type": "node",
  "id": 4585227953,
  "lat": 52.0313906,
  "lon": 47.7701425,
  "tags": {
    "tourism": "hotel"
  }
},
{
  "type": "node",
  "id": 4591242589,
  "lat": 51.2077740,
  "lon": 58.2988173,
  "tags": {
    "name": "Гостиница Новотроицкого цементного завода",
    "tourism": "hotel"
  }
},
{
  "type": "node",
  "id": 4621834226,
  "lat": 54.2454162,
  "lon": 45.1932169,
  "tags": {
    "name": "Причал",
    "tourism": "hotel"
  }
},
{
  "type": "node",
  "id": 4622154408,
  "lat": 54.3659795,
  "lon": 48.5823181,
  "tags": {
    "internet_access": "wlan",
    "name": "Авиастар",
    "phone": "+78422201396",
    "tourism": "hotel",
    "website": "https://aviastar-hotel.ru/"
  }
},
{
  "type": "node",
  "id": 4624901901,
  "lat": 54.9484512,
  "lon": 57.3138557,
  "tags": {
    "internet_access": "no",
    "name": "Профилакторий \"Берёзки\"",
    "operator": "ПАО \"Ашинский металлургический завод\"",
    "tourism": "hotel"
  }
},
{
  "type": "node",
  "id": 4646610695,
  "lat": 53.0876408,
  "lon": 46.6561648,
  "tags": {
    "name": "Ласточка",
    "name:ru": "Ласточка",
    "tourism": "hotel"
  }
},
{
  "type": "node",
  "id": 4646616791,
  "lat": 53.1257477,
  "lon": 47.2334673,
  "tags": {
    "tourism": "hotel"
  }
},
{
  "type": "node",
  "id": 4662926093,
  "lat": 52.8575069,
  "lon": 53.4881499,
  "tags": {
    "internet_access": "wlan",
    "name": "Магия Уюта",
    "opening_hours": "24/7",
    "phone": "83534531836",
    "tourism": "hotel"
  }
},
{
  "type": "node",
  "id": 4664323853,
  "lat": 50.8176290,
  "lon": 44.5558256,
  "tags": {
    "addr:city": "Рудня",
    "addr:housenumber": "1",
    "addr:street": "Песчаная улица",
    "building:levels": "1",
    "fire_rank": "2",
    "name": "Щелкан",
    "operator": "RU-VGG-9-60",
    "tourism": "hotel"
  }
},
{
  "type": "node",
  "id": 4672102390,
  "lat": 48.7165863,
  "lon": 44.8382919,
  "tags": {
    "addr:city": "Средняя Ахтуба",
    "addr:housenumber": "7",
    "addr:postcode": "404143",
    "addr:street": "Заречная улица",
    "description": "Центр отдыха и спорта «Афина» располагается на территории природного парка Волго-Ахтубинской поймы. Благоустроенная территория, развитая инфраструктура и высокий уровень сервиса - все это гарантирует комфортный досуг в окружении живописной природы.",
    "email": "admin@afina34.ru",
    "internet_access": "wlan",
    "internet_access:fee": "no",
    "name": "Центр отдыха и спорта «Афина»",
    "name:en": "Athena Holiday Resort",
    "name:ru": "Центр отдыха и спорта «Афина»",
    "opening_hours": "24/7",
    "phone": "+78442564666",
    "rooms": "12",
    "smoking": "outside",
    "tourism": "hotel",
    "website": "https://afina34.ru"
  }
},
{
  "type": "node",
  "id": 4679778593,
  "lat": 50.1840498,
  "lon": 51.1738335,
  "tags": {
    "name": "Керемет",
    "name:en": "Keremet",
    "name:kk": "Керемет",
    "name:ru": "Керемет",
    "tourism": "hotel"
  }
},
{
  "type": "node",
  "id": 4693825689,
  "lat": 50.3154854,
  "lon": 57.1494703,
  "tags": {
    "email": "info@hoteltumar.kz",
    "name:ru": "Тумар",
    "operator": "501436; 501625",
    "phone": "+77132501330",
    "tourism": "hotel"
  }
},
{
  "type": "node",
  "id": 4695527090,
  "lat": 50.7512327,
  "lon": 56.5009300,
  "tags": {
    "tourism": "hotel"
  }
},
{
  "type": "node",
  "id": 4727194305,
  "lat": 52.7255742,
  "lon": 41.4512122,
  "tags": {
    "addr:housenumber": "4А",
    "addr:street": "Октябрьская улица",
    "check_date": "2023-07-01",
    "email": "hotel@teatralnaya.com",
    "internet_access": "wlan",
    "internet_access:fee": "no",
    "name": "Театральная",
    "opening_hours": "24/7",
    "payment:mastercard": "yes",
    "payment:visa": "yes",
    "phone": "+74752728492;+74752729679",
    "tourism": "hotel",
    "website": "https://teatralnaya.com/"
  }
},
{
  "type": "node",
  "id": 4727545891,
  "lat": 52.7874204,
  "lon": 52.2599973,
  "tags": {
    "name": "Бузулук",
    "name:ru": "Бузулук",
    "tourism": "hotel"
  }
},
{
  "type": "node",
  "id": 4727693592,
  "lat": 53.8106790,
  "lon": 58.6373733,
  "tags": {
    "addr:city": "Новоабзаково",
    "addr:country": "RU",
    "addr:district": "Белорецкий район",
    "addr:housenumber": "2/1",
    "addr:postcode": "453565",
    "addr:region": "Башкортостан",
    "addr:street": "Горнолыжная улица",
    "brand": "MariChalet",
    "email": "booking@marichalet.ru",
    "internet_access": "wlan",
    "name": "МариШале",
    "name:en": "MariChalet",
    "opening_hours": "24/7",
    "payment:cash": "yes",
    "payment:credit_cards": "yes",
    "payment:debit_cards": "yes",
    "phone": "+73519008800",
    "reservation": "yes",
    "rooms": "18",
    "smoking": "outside",
    "tourism": "hotel",
    "website": "https://www.marichalet.ru/"
  }
},
{
  "type": "node",
  "id": 4746573259,
  "lat": 54.3219750,
  "lon": 48.4033115,
  "tags": {
    "contact:facebook": "https://www.facebook.com/simbirskhotel",
    "contact:instagram": "https://www.instagram.com/simbirskhotel/",
    "contact:vk": "https://vk.com/simhotel",
    "internet_access": "wlan",
    "internet_access:fee": "no",
    "name": "Симбирск",
    "phone": "+78422795555",
    "tourism": "hotel",
    "website": "https://hotelsimbirsk.ru/"
  }
},
{
  "type": "node",
  "id": 4748281324,
  "lat": 53.2063067,
  "lon": 50.1834356,
  "tags": {
    "tourism": "hotel"
  }
},
{
  "type": "node",
  "id": 4748676321,
  "lat": 48.6979198,
  "lon": 44.4815104,
  "tags": {
    "name": "Hotel Plaza",
    "name:ru": "Hotel Plaza",
    "tourism": "hotel"
  }
},
{
  "type": "node",
  "id": 4777370922,
  "lat": 49.8544487,
  "lon": 45.2271314,
  "tags": {
    "name": "Лагуна",
    "name:ru": "Лагуна",
    "tourism": "hotel"
  }
},
{
  "type": "node",
  "id": 4808061227,
  "lat": 54.7193573,
  "lon": 55.9306243,
  "tags": {
    "tourism": "hotel"
  }
},
{
  "type": "node",
  "id": 4809035522,
  "lat": 54.2112753,
  "lon": 40.4683770,
  "tags": {
    "tourism": "hotel"
  }
},
{
  "type": "node",
  "id": 4815782427,
  "lat": 53.3137265,
  "lon": 44.7691589,
  "tags": {
    "name": "Арт-Пенза",
    "tourism": "hotel"
  }
},
{
  "type": "node",
  "id": 4825308221,
  "lat": 53.1293563,
  "lon": 50.4215607,
  "tags": {
    "tourism": "hotel"
  }
},
{
  "type": "node",
  "id": 4826363521,
  "lat": 51.9278647,
  "lon": 47.8172117,
  "tags": {
    "tourism": "hotel"
  }
},
{
  "type": "node",
  "id": 4826392221,
  "lat": 51.8302844,
  "lon": 47.0512213,
  "tags": {
    "name": "Волга",
    "name:ru": "Волга",
    "tourism": "hotel"
  }
},
{
  "type": "node",
  "id": 4826392422,
  "lat": 51.7585873,
  "lon": 46.8998028,
  "tags": {
    "name": "Луна",
    "name:ru": "Луна",
    "tourism": "hotel"
  }
},
{
  "type": "node",
  "id": 4834155959,
  "lat": 48.7272194,
  "lon": 44.5388179,
  "tags": {
    "addr:city": "Волгоград",
    "addr:housenumber": "56А",
    "addr:postcode": "400005",
    "addr:street": "проспект Ленина",
    "brand": "Hilton Garden Inn",
    "brand:wikidata": "Q1162859",
    "contact:facebook": "https://www.facebook.com/hiltongardeninn.vlg",
    "contact:instagram": "https://www.instagram.com/hiltongardeninn_volgograd/",
    "contact:phone": "+7 8442 532200",
    "email": "reservation@hgivolgograd.ru",
    "internet_access": "wlan",
    "name": "Hilton Garden Inn Volgograd",
    "operator": "Hilton",
    "rooms": "157",
    "stars": "4",
    "tourism": "hotel",
    "website": "http://www.hilton.ru/hotels/hilton-garden-inn-volgograd/?WT.mc_id=zLMWA0RU1GI2NaturalSearch3Google_LGHotelListing4DGGeneric_Sep5LocalSearch6VOGGIGI7EN8i1",
    "wheelchair": "yes"
  }
},
{
  "type": "node",
  "id": 4839632328,
  "lat": 54.8830622,
  "lon": 57.2612827,
  "tags": {
    "internet_access": "wlan",
    "tourism": "hotel"
  }
},
{
  "type": "node",
  "id": 4854822190,
  "lat": 53.8144309,
  "lon": 58.6268631,
  "tags": {
    "name": "Дом отдыха Абзаково",
    "tourism": "hotel"
  }
},
{
  "type": "node",
  "id": 4875454001,
  "lat": 54.2245099,
  "lon": 49.5640957,
  "tags": {
    "addr:city": "Димитровград",
    "addr:housenumber": "63",
    "addr:street": "Мулловское шоссе",
    "name": "Встреча Кафе-отель",
    "tourism": "hotel"
  }
},
{
  "type": "node",
  "id": 4883755539,
  "lat": 48.7925723,
  "lon": 40.3935026,
  "tags": {
    "tourism": "hotel"
  }
},
{
  "type": "node",
  "id": 4885852535,
  "lat": 48.5289686,
  "lon": 40.3425814,
  "tags": {
    "tourism": "hotel"
  }
},
{
  "type": "node",
  "id": 4891542015,
  "lat": 51.7923380,
  "lon": 55.1323425,
  "tags": {
    "addr:city": "Оренбург",
    "addr:housenumber": "194",
    "addr:postcode": "460026",
    "addr:street": "Самолётная улица",
    "internet_access": "yes",
    "internet_access:fee": "no",
    "name": "Tweed",
    "phone": "+7(3532)708-266",
    "rooms": "30",
    "smoking": "no",
    "stars": "3",
    "tourism": "hotel",
    "website": "https://tweedhotel.ru/"
  }
},
{
  "type": "node",
  "id": 4924831321,
  "lat": 49.5866201,
  "lon": 42.7375831,
  "tags": {
    "addr:housenumber": "26",
    "addr:postcode": "403441",
    "addr:street": "Октябрьская улица",
    "internet_access": "wlan",
    "name": "Пристанская",
    "name:ru": "Пристанская",
    "phone": "+7 904 7791499",
    "tourism": "hotel"
  }
},
{
  "type": "node",
  "id": 4926718101,
  "lat": 53.1883126,
  "lon": 49.6883243,
  "tags": {
    "name": "Монастырская гостиница",
    "tourism": "hotel"
  }
},
{
  "type": "node",
  "id": 4948349175,
  "lat": 53.1680979,
  "lon": 43.9691897,
  "tags": {
    "name": "Колесо",
    "tourism": "hotel"
  }
},
{
  "type": "node",
  "id": 4948349182,
  "lat": 53.1673661,
  "lon": 43.9712115,
  "tags": {
    "name": "Кувака",
    "tourism": "hotel"
  }
},
{
  "type": "node",
  "id": 4949096613,
  "lat": 53.2313961,
  "lon": 44.9456438,
  "tags": {
    "name": "Пипл",
    "tourism": "hotel"
  }
},
{
  "type": "node",
  "id": 4955215323,
  "lat": 53.0907983,
  "lon": 56.4259867,
  "tags": {
    "leisure": "resort",
    "name": "База отдыха \"Солнечная\"",
    "resort": "recreation_center",
    "tourism": "hotel"
  }
},
{
  "type": "node",
  "id": 4955215324,
  "lat": 53.0927001,
  "lon": 56.4389745,
  "tags": {
    "leisure": "resort",
    "name": "База отдыха \"Дубрава\"",
    "resort": "recreation_center",
    "tourism": "hotel"
  }
},
{
  "type": "node",
  "id": 4955224423,
  "lat": 53.0913049,
  "lon": 56.4290775,
  "tags": {
    "leisure": "resort",
    "name": "База отдыха \"Монтажник\"",
    "resort": "recreation_center",
    "tourism": "hotel"
  }
},
{
  "type": "node",
  "id": 4955224621,
  "lat": 53.0915210,
  "lon": 56.4304347,
  "tags": {
    "leisure": "resort",
    "name": "База отдыха \"Парус\"",
    "resort": "recreation_center",
    "tourism": "hotel"
  }
},
{
  "type": "node",
  "id": 4963128447,
  "lat": 48.7174413,
  "lon": 44.5128599,
  "tags": {
    "addr:city": "Волгоград",
    "addr:housenumber": "6А",
    "addr:street": "Невская улица",
    "name": "Каштан",
    "tourism": "hotel",
    "website": "https://votel24.ru/"
  }
},
{
  "type": "node",
  "id": 4964239327,
  "lat": 53.0916641,
  "lon": 56.4311246,
  "tags": {
    "leisure": "resort",
    "name": "База отдыха \"Лесная сказка\"",
    "resort": "recreation_center",
    "tourism": "hotel"
  }
},
{
  "type": "node",
  "id": 4972511224,
  "lat": 52.6867782,
  "lon": 42.1288305,
  "tags": {
    "name": "Берлога",
    "tourism": "hotel"
  }
},
{
  "type": "node",
  "id": 4975355636,
  "lat": 53.0001327,
  "lon": 43.6727782,
  "tags": {
    "internet_access": "wlan",
    "name": "Гостиница музейно-просветительского центра",
    "opening_hours": "24/7",
    "phone": "+7(937)4413943",
    "tourism": "hotel"
  }
},
{
  "type": "node",
  "id": 4980117721,
  "lat": 54.4498416,
  "lon": 53.4431983,
  "tags": {
    "name": "Нурлы-аиман",
    "tourism": "hotel"
  }
},
{
  "type": "node",
  "id": 4981459535,
  "lat": 53.8984571,
  "lon": 51.2101151,
  "tags": {
    "addr:housenumber": "13",
    "addr:street": "Молодогвардейская улица",
    "name": "Деловой центр",
    "tourism": "hotel"
  }
},
{
  "type": "node",
  "id": 4983599621,
  "lat": 53.2314812,
  "lon": 44.9456950,
  "tags": {
    "name": "People",
    "tourism": "hotel"
  }
},
{
  "type": "node",
  "id": 5016358924,
  "lat": 51.4759399,
  "lon": 40.4192133,
  "tags": {
    "addr:street": "Севастопольская улица",
    "internet_access": "wlan",
    "name": "The Yard - Lodgings",
    "name:ru": "The Yard - Lodgings",
    "tourism": "hotel"
  }
},
{
  "type": "node",
  "id": 5019176092,
  "lat": 50.7633697,
  "lon": 41.0759760,
  "tags": {
    "tourism": "hotel"
  }
},
{
  "type": "node",
  "id": 5024407482,
  "lat": 54.4372049,
  "lon": 45.8327219,
  "tags": {
    "contact:vk": "club71040811",
    "email": "gksputnik@mail.ru",
    "internet_access": "wlan",
    "name": "Спутник",
    "name:en": "Sputnik",
    "opening_hours": "24/7",
    "phone": "+7 937 5136555",
    "rooms": "11",
    "tourism": "hotel",
    "website": "http://sputnikrm.ru/"
  }
},
{
  "type": "node",
  "id": 5025831346,
  "lat": 54.2301379,
  "lon": 45.1536198,
  "tags": {
    "name": "Гостиница Северный замок",
    "phone": "+7 (8342) 37-25-25",
    "rooms": "22",
    "tourism": "hotel",
    "website": "http://northcastle.ru/"
  }
},
{
  "type": "node",
  "id": 5026152020,
  "lat": 54.2133141,
  "lon": 45.1817981,
  "tags": {
    "internet_access": "wlan",
    "name": "Гостиничный комплекс Михайловский",
    "phone": "+7 (8342) 37-25-01",
    "start_date": "2017",
    "tourism": "hotel",
    "website": "https://mikhailovsky-saransk.ru/"
  }
},
{
  "type": "node",
  "id": 5042277322,
  "lat": 51.6095253,
  "lon": 45.7746039,
  "tags": {
    "name": "Красивая",
    "name:ru": "Красивая",
    "tourism": "hotel"
  }
},
{
  "type": "node",
  "id": 5050861438,
  "lat": 54.4668548,
  "lon": 46.7031813,
  "tags": {
    "name": "Сура",
    "phone": "+7 (84242) 2-26-84",
    "tourism": "hotel"
  }
},
{
  "type": "node",
  "id": 5054524261,
  "lat": 54.3267670,
  "lon": 48.3977694,
  "tags": {
    "addr:city": "Ульяновск",
    "addr:housenumber": "18",
    "addr:street": "Нижнетатарская улица",
    "internet_access": "yes",
    "internet_access:fee": "no",
    "name": "Гостиница Медведефф",
    "smoking": "outside",
    "tourism": "hotel"
  }
},
{
  "type": "node",
  "id": 5055360921,
  "lat": 54.3628161,
  "lon": 48.8136182,
  "tags": {
    "email": "medvedeff-ul@yandex.ru",
    "internet_access": "wlan",
    "name": "Медведефф",
    "name:en": "Hostel/Hotel Medvedeff",
    "name:ru": "Гостиница Медведефф",
    "opening_hours": "24/7",
    "phone": "+7 937 2755475",
    "tourism": "hotel",
    "website": "https://medvedeff-ul.ru/home-cherdakly"
  }
},
{
  "type": "node",
  "id": 5061296430,
  "lat": 52.2645867,
  "lon": 49.1385955,
  "tags": {
    "name": "Оазиз",
    "name:en": "Oasis",
    "name:ru": "Оазиз",
    "tourism": "hotel"
  }
},
{
  "type": "node",
  "id": 5070670223,
  "lat": 52.6582498,
  "lon": 42.7245002,
  "tags": {
    "addr:housenumber": "77В",
    "addr:street": "Рабоче-Крестьянская улица",
    "name": "Уют",
    "name:en": "Uyut",
    "name:ru": "Уют",
    "tourism": "hotel"
  }
},
{
  "type": "node",
  "id": 5071836221,
  "lat": 51.5859628,
  "lon": 59.3633911,
  "tags": {
    "tourism": "hotel"
  }
},
{
  "type": "node",
  "id": 5071836421,
  "lat": 51.5847542,
  "lon": 59.3655988,
  "tags": {
    "tourism": "hotel"
  }
},
{
  "type": "node",
  "id": 5085813055,
  "lat": 53.4345322,
  "lon": 49.6611252,
  "tags": {
    "addr:housenumber": "1А",
    "addr:street": "Школьная улица",
    "description": "места для палаток, дом с двухярусными кроватями на 13 человек",
    "name": "Туристический приют",
    "phone": "89270255279",
    "tourism": "hotel"
  }
},
{
  "type": "node",
  "id": 5103268921,
  "lat": 51.8887401,
  "lon": 57.7095756,
  "tags": {
    "name": "Сакмара",
    "name:ru": "Сакмара",
    "tourism": "hotel"
  }
},
{
  "type": "node",
  "id": 5106715023,
  "lat": 52.3434119,
  "lon": 55.5061098,
  "tags": {
    "name": "Факел",
    "tourism": "hotel"
  }
},
{
  "type": "node",
  "id": 5114161821,
  "lat": 52.7244209,
  "lon": 41.4352843,
  "tags": {
    "name": "Успенская",
    "tourism": "hotel"
  }
},
{
  "type": "node",
  "id": 5136630119,
  "lat": 54.2719760,
  "lon": 41.4445331,
  "tags": {
    "tourism": "hotel"
  }
},
{
  "type": "node",
  "id": 5136895722,
  "lat": 51.3959771,
  "lon": 56.4121488,
  "tags": {
    "addr:housenumber": "30",
    "addr:postcode": "461330",
    "addr:street": "Банковская улица",
    "name": "Уютный",
    "opening_hours": "24/7",
    "operator": "Сахиткиреев А.Ш",
    "phone": "89225395555",
    "tourism": "hotel"
  }
},
{
  "type": "node",
  "id": 5145868323,
  "lat": 53.8068167,
  "lon": 58.6354832,
  "tags": {
    "tourism": "hotel"
  }
},
{
  "type": "node",
  "id": 5153609823,
  "lat": 52.7347827,
  "lon": 41.4407097,
  "tags": {
    "name": "Белгравия",
    "tourism": "hotel"
  }
},
{
  "type": "node",
  "id": 5203842825,
  "lat": 52.7314624,
  "lon": 41.4487587,
  "tags": {
    "email": "info@hotel-tambov.ru",
    "internet_access": "wlan",
    "name": "Гранд",
    "opening_hours": "24/7",
    "phone": "+7 4752 47 48 31",
    "tourism": "hotel",
    "website": "https://gostinica-tambov.ru/"
  }
},
{
  "type": "node",
  "id": 5214410522,
  "lat": 54.2985644,
  "lon": 48.2874237,
  "tags": {
    "alt_name": "Арт-Ульяновск: Правый берег",
    "contact:facebook": "https://www.facebook.com/artulyanovsk/",
    "contact:instagram": "https://www.instagram.com/artulyanovsk/",
    "contact:vk": "https://vk.com/art_ulyanovsk",
    "contact:whatsapp": "+7 927 2731488",
    "name": "Арт-Ульяновск",
    "phone": "+7 937 2753311",
    "tourism": "hotel",
    "website": "http://art-ulyanovsk.ru/ru/rightside/"
  }
},
{
  "type": "node",
  "id": 5251749837,
  "lat": 54.9680486,
  "lon": 41.7516061,
  "tags": {
    "tourism": "hotel"
  }
},
{
  "type": "node",
  "id": 5251964927,
  "lat": 51.4738301,
  "lon": 58.4565661,
  "tags": {
    "name": "Гайский ГОК",
    "opening_hours": "24/7",
    "tourism": "hotel"
  }
},
{
  "type": "node",
  "id": 5262280021,
  "lat": 50.3158934,
  "lon": 44.8023534,
  "tags": {
    "name": "Тамара",
    "tourism": "hotel"
  }
},
{
  "type": "node",
  "id": 5278969722,
  "lat": 52.7693124,
  "lon": 41.4161702,
  "tags": {
    "name": "Макс",
    "tourism": "hotel"
  }
},
{
  "type": "node",
  "id": 5295249209,
  "lat": 54.3047311,
  "lon": 44.4664603,
  "tags": {
    "tourism": "hotel"
  }
},
{
  "type": "node",
  "id": 5346849533,
  "lat": 53.4861164,
  "lon": 49.4771544,
  "tags": {
    "tourism": "hotel"
  }
},
{
  "type": "node",
  "id": 5382748622,
  "lat": 54.7614761,
  "lon": 56.0492135,
  "tags": {
    "tourism": "hotel"
  }
},
{
  "type": "node",
  "id": 5410135821,
  "lat": 53.8121679,
  "lon": 58.6411131,
  "tags": {
    "tourism": "hotel"
  }
},
{
  "type": "node",
  "id": 5418586249,
  "lat": 53.0879949,
  "lon": 46.5733087,
  "tags": {
    "name": "У Максима",
    "tourism": "hotel"
  }
},
{
  "type": "node",
  "id": 5434505823,
  "lat": 54.9939632,
  "lon": 48.3310284,
  "tags": {
    "tourism": "hotel"
  }
},
{
  "type": "node",
  "id": 5455716549,
  "lat": 52.7820068,
  "lon": 52.2685357,
  "tags": {
    "tourism": "hotel"
  }
},
{
  "type": "node",
  "id": 5467601853,
  "lat": 48.5752460,
  "lon": 44.4408549,
  "tags": {
    "name": "Отель \"Комфорт\"",
    "tourism": "hotel"
  }
},
{
  "type": "node",
  "id": 5490505589,
  "lat": 53.0755456,
  "lon": 50.2148822,
  "tags": {
    "name": "Эдельвейс",
    "phone": "+7(917)–947–22–32",
    "stars": "4",
    "tourism": "hotel"
  }
},
{
  "type": "node",
  "id": 5497069323,
  "lat": 51.3841647,
  "lon": 58.9832759,
  "tags": {
    "tourism": "hotel"
  }
},
{
  "type": "node",
  "id": 5500383021,
  "lat": 52.7212356,
  "lon": 41.4399965,
  "tags": {
    "name": "Люкс",
    "tourism": "hotel"
  }
},
{
  "type": "node",
  "id": 5552612082,
  "lat": 53.4878329,
  "lon": 49.5102350,
  "tags": {
    "name": "Магистраль",
    "tourism": "hotel"
  }
},
{
  "type": "node",
  "id": 5579259683,
  "lat": 53.5065008,
  "lon": 50.0631496,
  "tags": {
    "internet_access": "wlan",
    "name": "Гостиничный комплекс «Русская охота»",
    "tourism": "hotel"
  }
},
{
  "type": "node",
  "id": 5583920225,
  "lat": 51.6181519,
  "lon": 41.9652154,
  "tags": {
    "tourism": "hotel"
  }
},
{
  "type": "node",
  "id": 5598065910,
  "lat": 50.2880035,
  "lon": 57.2163682,
  "tags": {
    "addr:city": "Актобе",
    "addr:housenumber": "52",
    "addr:street": "улица Жургенова",
    "name": "Старый город",
    "tourism": "hotel"
  }
},
{
  "type": "node",
  "id": 5628642609,
  "lat": 53.3106087,
  "lon": 44.7749090,
  "tags": {
    "name": "База отдыха Чистые пруды",
    "note": "не путать с гостиничным комплексом",
    "tourism": "hotel"
  }
},
{
  "type": "node",
  "id": 5629981695,
  "lat": 54.2340540,
  "lon": 45.1923788,
  "tags": {
    "name": "Sarin",
    "phone": "312318",
    "tourism": "hotel"
  }
},
{
  "type": "node",
  "id": 5629981698,
  "lat": 54.2346147,
  "lon": 45.1935456,
  "tags": {
    "name": "Гостевой дом",
    "tourism": "hotel"
  }
},
{
  "type": "node",
  "id": 5652769421,
  "lat": 51.6386568,
  "lon": 45.8050072,
  "tags": {
    "phone": "8452531629",
    "tourism": "hotel"
  }
},
{
  "type": "node",
  "id": 5677844446,
  "lat": 51.4795872,
  "lon": 40.4153323,
  "tags": {
    "addr:housenumber": "5А",
    "addr:street": "улица Фридриха Энгельса",
    "email": "9204488844@mail.ru",
    "fax": "+7 47346 2 07 41",
    "name": "John Gold",
    "phone": "+7 920 44 888 44",
    "tourism": "hotel",
    "website": "http://аннагостиница.рф"
  }
},
{
  "type": "node",
  "id": 5680066426,
  "lat": 53.1945540,
  "lon": 45.0171768,
  "tags": {
    "tourism": "hotel"
  }
},
{
  "type": "node",
  "id": 5685668521,
  "lat": 53.5113322,
  "lon": 49.5656033,
  "tags": {
    "name": "гуляй душа",
    "tourism": "hotel"
  }
},
{
  "type": "node",
  "id": 5690614008,
  "lat": 52.6462139,
  "lon": 41.4420560,
  "tags": {
    "tourism": "hotel"
  }
},
{
  "type": "node",
  "id": 5692087727,
  "lat": 54.5681324,
  "lon": 55.8964018,
  "tags": {
    "addr:street": "улица Строителей",
    "name": "Гостиница \"Газпром добыча Ямбург\"",
    "tourism": "hotel"
  }
},
{
  "type": "node",
  "id": 5717400422,
  "lat": 53.2090436,
  "lon": 50.2032862,
  "tags": {
    "name": "Niagara",
    "tourism": "hotel"
  }
},
{
  "type": "node",
  "id": 5744885224,
  "lat": 50.4570293,
  "lon": 40.1392499,
  "tags": {
    "name": "Lux",
    "tourism": "hotel"
  }
},
{
  "type": "node",
  "id": 5758102221,
  "lat": 51.1184561,
  "lon": 40.7290482,
  "tags": {
    "name": "Аура",
    "tourism": "hotel"
  }
},
{
  "type": "node",
  "id": 5773324855,
  "lat": 48.5839112,
  "lon": 45.7424325,
  "tags": {
    "name": "Мини Виктория",
    "tourism": "hotel"
  }
},
{
  "type": "node",
  "id": 5773333755,
  "lat": 48.7772674,
  "lon": 44.5925991,
  "tags": {
    "internet_access": "wlan",
    "internet_access:fee": "no",
    "name": "Volga Volga",
    "tourism": "hotel"
  }
},
{
  "type": "node",
  "id": 5773349453,
  "lat": 48.5837819,
  "lon": 45.7287877,
  "tags": {
    "tourism": "hotel"
  }
},
{
  "type": "node",
  "id": 5773666954,
  "lat": 48.5834942,
  "lon": 45.7417775,
  "tags": {
    "name": "Виктория",
    "tourism": "hotel"
  }
},
{
  "type": "node",
  "id": 5779425554,
  "lat": 50.0793978,
  "lon": 43.2361263,
  "tags": {
    "tourism": "hotel"
  }
},
{
  "type": "node",
  "id": 5783909086,
  "lat": 54.8223617,
  "lon": 56.0747531,
  "tags": {
    "name": "Караидель",
    "tourism": "hotel"
  }
},
{
  "type": "node",
  "id": 5812643698,
  "lat": 52.9867831,
  "lon": 48.3166445,
  "tags": {
    "description": "Домики, 4-5 местные",
    "tourism": "hotel"
  }
},
{
  "type": "node",
  "id": 5813636615,
  "lat": 52.0477014,
  "lon": 46.7458337,
  "tags": {
    "name": "Гостиница",
    "tourism": "hotel"
  }
},
{
  "type": "node",
  "id": 5844965586,
  "lat": 48.6346703,
  "lon": 42.8640656,
  "tags": {
    "addr:street": "Волгоград - Каменск-Шахтинский",
    "name": "Гостиница, стоянка, душ",
    "opening_hours": "24/7",
    "tourism": "hotel"
  }
},
{
  "type": "node",
  "id": 5891225441,
  "lat": 51.7878930,
  "lon": 55.2127392,
  "tags": {
    "name": "Зорянка",
    "tourism": "hotel"
  }
},
{
  "type": "node",
  "id": 5892652287,
  "lat": 51.7422843,
  "lon": 54.9024850,
  "tags": {
    "name": "Холодный ключ",
    "tourism": "hotel"
  }
},
{
  "type": "node",
  "id": 5893054885,
  "lat": 52.4821770,
  "lon": 44.2309451,
  "tags": {
    "addr:housenumber": "29В",
    "addr:street": "Молодёжная улица",
    "internet_access": "wlan",
    "name": "Жемчужина",
    "opening_hours": "24/7",
    "phone": "89093155050",
    "tourism": "hotel"
  }
},
{
  "type": "node",
  "id": 5898535095,
  "lat": 51.7735521,
  "lon": 55.1124415,
  "tags": {
    "addr:city": "Оренбург",
    "addr:housenumber": "18/1",
    "addr:street": "улица Аксакова",
    "name": "отель Оренбург",
    "tourism": "hotel"
  }
},
{
  "type": "node",
  "id": 5898537692,
  "lat": 51.7733681,
  "lon": 55.1133511,
  "tags": {
    "addr:city": "Оренбург",
    "addr:housenumber": "20Б",
    "addr:street": "улица Аксакова",
    "name": "Дубрава плюс",
    "tourism": "hotel"
  }
},
{
  "type": "node",
  "id": 5898571407,
  "lat": 51.7770119,
  "lon": 55.1125982,
  "tags": {
    "addr:city": "Оренбург",
    "addr:housenumber": "30/1",
    "addr:street": "Охотничья улица",
    "name": "Шоколад",
    "tourism": "hotel"
  }
},
{
  "type": "node",
  "id": 5903162909,
  "lat": 51.7287902,
  "lon": 55.0949586,
  "tags": {
    "addr:city": "Оренбург",
    "addr:housenumber": "24А",
    "addr:street": "улица Механизаторов",
    "name": "Риф",
    "tourism": "hotel"
  }
},
{
  "type": "node",
  "id": 5912024560,
  "lat": 51.7769443,
  "lon": 55.0777819,
  "tags": {
    "name": "Парк Отель",
    "tourism": "hotel"
  }
},
{
  "type": "node",
  "id": 5924276986,
  "lat": 53.2324050,
  "lon": 50.1875157,
  "tags": {
    "addr:housenumber": "6",
    "addr:street": "8-я Радиальная улица",
    "name": "Тренд",
    "phone": "+7 (902) 372-11-11 , 8(846)20-38-111",
    "tourism": "hotel",
    "website": "https://hoteltrend.ru/"
  }
},
{
  "type": "node",
  "id": 5939397830,
  "lat": 48.5594350,
  "lon": 51.7392111,
  "tags": {
    "name": "БАСТАУ",
    "tourism": "hotel"
  }
},
{
  "type": "node",
  "id": 5940907404,
  "lat": 48.8858471,
  "lon": 53.7863512,
  "tags": {
    "name": "Ахан",
    "tourism": "hotel"
  }
},
{
  "type": "node",
  "id": 5952998140,
  "lat": 53.3436241,
  "lon": 50.5221291,
  "tags": {
    "addr:city": "Сырейка",
    "addr:housenumber": "16Б",
    "addr:street": "Советская улица",
    "tourism": "hotel"
  }
},
{
  "type": "node",
  "id": 5964483654,
  "lat": 53.2144057,
  "lon": 45.0086236,
  "tags": {
    "name": "Держава",
    "note": "ИП: парус, праздник, НЕТ- сосновый лес",
    "tourism": "hotel"
  }
},
{
  "type": "node",
  "id": 5988563085,
  "lat": 53.6611112,
  "lon": 53.6402354,
  "tags": {
    "name": "гостиница АЛЬЯНС",
    "name:en": "Hotel Alliance",
    "opening_hours": "24/7",
    "tourism": "hotel"
  }
},
{
  "type": "node",
  "id": 6051508488,
  "lat": 48.9124275,
  "lon": 40.4625853,
  "tags": {
    "addr:housenumber": "1",
    "addr:postcode": "346101",
    "addr:street": "Центральная улица",
    "name": "Загородный клуб «Добрыня»",
    "name:en": "Country equestrian club Dobrynya",
    "opening_hours": "24/7",
    "phone": "+79614088886",
    "tourism": "hotel"
  }
},
{
  "type": "node",
  "id": 6058129879,
  "lat": 53.2216507,
  "lon": 44.9045915,
  "tags": {
    "tourism": "hotel"
  }
},
{
  "type": "node",
  "id": 6082473864,
  "lat": 52.8075870,
  "lon": 49.6157474,
  "tags": {
    "name": "Триумф",
    "tourism": "hotel"
  }
},
{
  "type": "node",
  "id": 6105144289,
  "lat": 51.4024285,
  "lon": 57.5862578,
  "tags": {
    "email": "mednogorsk.centrum-hotel@yandex.ru",
    "name": "Центральная",
    "opening_hours": "24/7",
    "operator": "ИП Крюкова Г.И.",
    "phone": "+7 35379 30506",
    "tourism": "hotel"
  }
},
{
  "type": "node",
  "id": 6110959134,
  "lat": 52.2915178,
  "lon": 45.3856579,
  "tags": {
    "name": "Империя",
    "tourism": "hotel"
  }
},
{
  "type": "node",
  "id": 6124541900,
  "lat": 54.9320636,
  "lon": 58.1759825,
  "tags": {
    "tourism": "hotel"
  }
},
{
  "type": "node",
  "id": 6135486811,
  "lat": 53.1994449,
  "lon": 44.9974952,
  "tags": {
    "name": "Альфа",
    "tourism": "hotel"
  }
},
{
  "type": "node",
  "id": 6135549533,
  "lat": 53.1983148,
  "lon": 44.9955273,
  "tags": {
    "name": "Лондон Париж",
    "note": "ИП: пармеев, валентинович",
    "tourism": "hotel"
  }
},
{
  "type": "node",
  "id": 6149046896,
  "lat": 54.8537860,
  "lon": 46.5937530,
  "tags": {
    "description": "Женская гостиница",
    "tourism": "hotel"
  }
},
{
  "type": "node",
  "id": 6152848985,
  "lat": 53.8122274,
  "lon": 58.6411136,
  "tags": {
    "name": "усадьба Еловое",
    "tourism": "hotel"
  }
},
{
  "type": "node",
  "id": 6205326785,
  "lat": 54.4151124,
  "lon": 46.3080605,
  "tags": {
    "addr:housenumber": "1",
    "addr:street": "улица 50 лет Победы",
    "name": "у околоцы",
    "tourism": "hotel"
  }
},
{
  "type": "node",
  "id": 6211251286,
  "lat": 53.1779202,
  "lon": 47.8806237,
  "tags": {
    "addr:postcode": "433883",
    "email": "medvedeffm5@mail.com",
    "internet_access": "wlan",
    "name": "Комплекс \"Медведефф\"",
    "name:en": "Roadside complex Medvedeff",
    "opening_hours": "24/7",
    "phone": "+79510933120",
    "tourism": "hotel",
    "website": "https://medvedeff-ul.ru/hotel-novospasskoe-1"
  }
},
{
  "type": "node",
  "id": 6211261185,
  "lat": 53.1541948,
  "lon": 47.6213021,
  "tags": {
    "addr:postcode": "433883",
    "email": "medvedeffm5@mail.com",
    "internet_access": "wlan",
    "name": "Комплекс \"Медведефф\"",
    "name:en": "Roadside complex Medvedeff",
    "opening_hours": "24/7",
    "phone": "+79510933120",
    "tourism": "hotel",
    "website": "https://medvedeff-ul.ru/hotel-novospasskoe-2"
  }
},
{
  "type": "node",
  "id": 6303860281,
  "lat": 53.2288927,
  "lon": 50.2609475,
  "tags": {
    "addr:housenumber": "53",
    "addr:postcode": "443034",
    "addr:street": "Юбилейная улица",
    "name": "City",
    "tourism": "hotel"
  }
},
{
  "type": "node",
  "id": 6306287394,
  "lat": 54.6449276,
  "lon": 57.6877528,
  "tags": {
    "leisure": "resort",
    "name": "База «Белетур»",
    "tourism": "hotel"
  }
},
{
  "type": "node",
  "id": 6306287403,
  "lat": 54.6559561,
  "lon": 57.6971470,
  "tags": {
    "name": "Метелица",
    "tourism": "hotel"
  }
},
{
  "type": "node",
  "id": 6307522129,
  "lat": 54.8533600,
  "lon": 57.8656806,
  "tags": {
    "name": "Горный хутор",
    "tourism": "hotel"
  }
},
{
  "type": "node",
  "id": 6312073562,
  "lat": 54.8602563,
  "lon": 57.3957049,
  "tags": {
    "name": "Бахмур",
    "tourism": "hotel"
  }
},
{
  "type": "node",
  "id": 6318001735,
  "lat": 48.7766418,
  "lon": 44.5919991,
  "tags": {
    "addr:city": "Волгоград",
    "addr:housenumber": "16А",
    "addr:postcode": "400016",
    "addr:street": "Волжский проспект",
    "internet_access": "wlan",
    "name": "Спортивная",
    "rooms": "156",
    "tourism": "hotel"
  }
},
{
  "type": "node",
  "id": 6363849185,
  "lat": 54.3505630,
  "lon": 60.8182702,
  "tags": {
    "name": "Визит",
    "tourism": "hotel"
  }
},
{
  "type": "node",
  "id": 6372298057,
  "lat": 53.2323949,
  "lon": 50.1812021,
  "tags": {
    "email": "timehostelsamara@mail.ru",
    "internet_access": "yes",
    "name": "TIME | Hotel & Hostel",
    "phone": "+7-919-800-25-63",
    "tourism": "hotel",
    "website": "http://time163.ru/"
  }
},
{
  "type": "node",
  "id": 6372298103,
  "lat": 53.2312948,
  "lon": 50.1787930,
  "tags": {
    "brand": "Marriot",
    "fax": "+7 846 277-83-50",
    "name": "Ренессанс Самара",
    "phone": "+7 (846) 277-83-40",
    "stars": "4",
    "tourism": "hotel",
    "website": "http://renaissance-samara.ru/"
  }
},
{
  "type": "node",
  "id": 6383963985,
  "lat": 53.9213840,
  "lon": 56.5222688,
  "tags": {
    "name": "Табын",
    "name:en": "Tabyn",
    "tourism": "hotel"
  }
},
{
  "type": "node",
  "id": 6385360637,
  "lat": 54.2258300,
  "lon": 45.2039513,
  "tags": {
    "name": "Рассвет",
    "phone": "+7 (8342) 29-45-35, +7 (952) 076-87-70",
    "tourism": "hotel",
    "website": "https://www.rassvet-hotel.ru/"
  }
},
{
  "type": "node",
  "id": 6385360642,
  "lat": 54.2057233,
  "lon": 45.1582894,
  "tags": {
    "addr:city": "Саранск",
    "addr:housenumber": "11",
    "addr:street": "Строительная улица",
    "name": "Визит",
    "phone": "+7(8342) 270266",
    "rooms": "13",
    "tourism": "hotel",
    "website": "https://www.vizit-saransk.com/"
  }
},
{
  "type": "node",
  "id": 6410324269,
  "lat": 54.3425241,
  "lon": 41.9184771,
  "tags": {
    "name": "Транзит",
    "tourism": "hotel"
  }
},
{
  "type": "node",
  "id": 6419930585,
  "lat": 53.8825764,
  "lon": 51.2393389,
  "tags": {
    "internet_access": "wlan",
    "name": "Теремок",
    "tourism": "hotel"
  }
},
{
  "type": "node",
  "id": 6440488487,
  "lat": 50.1120613,
  "lon": 45.3753695,
  "tags": {
    "name": "Star",
    "tourism": "hotel"
  }
},
{
  "type": "node",
  "id": 6440923685,
  "lat": 52.1523338,
  "lon": 46.9618854,
  "tags": {
    "tourism": "hotel"
  }
},
{
  "type": "node",
  "id": 6441796185,
  "lat": 52.1592649,
  "lon": 47.8207749,
  "tags": {
    "tourism": "hotel"
  }
},
{
  "type": "node",
  "id": 6441914685,
  "lat": 52.9970360,
  "lon": 48.3256603,
  "tags": {
    "tourism": "hotel"
  }
},
{
  "type": "node",
  "id": 6442505185,
  "lat": 54.9020365,
  "lon": 52.3157989,
  "tags": {
    "name": "омега",
    "name:en": "Omega",
    "name:ru": "Омега",
    "tourism": "hotel"
  }
},
{
  "type": "node",
  "id": 6443169987,
  "lat": 54.4236525,
  "lon": 53.1600976,
  "tags": {
    "addr:city": "Бавлы",
    "name": "Вояж",
    "tourism": "hotel"
  }
},
{
  "type": "node",
  "id": 6444680285,
  "lat": 51.7871247,
  "lon": 56.3562555,
  "tags": {
    "name": "Саракташ",
    "tourism": "hotel"
  }
},
{
  "type": "node",
  "id": 6447714590,
  "lat": 49.2740459,
  "lon": 60.6240572,
  "tags": {
    "internet_access": "wlan",
    "tourism": "hotel"
  }
},
{
  "type": "node",
  "id": 6514566641,
  "lat": 49.9255650,
  "lon": 40.5098722,
  "tags": {
    "internet_access": "wlan",
    "internet_access:fee": "no",
    "name": "Арсения",
    "tourism": "hotel"
  }
},
{
  "type": "node",
  "id": 6524111735,
  "lat": 53.0909397,
  "lon": 46.3306020,
  "tags": {
    "name": "Европарк",
    "tourism": "hotel"
  }
},
{
  "type": "node",
  "id": 6524138731,
  "lat": 53.1836995,
  "lon": 47.9249778,
  "tags": {
    "name": "У Альберта",
    "tourism": "hotel"
  }
},
{
  "type": "node",
  "id": 6524184638,
  "lat": 48.5573632,
  "lon": 51.7511058,
  "tags": {
    "name": "Aqsai",
    "tourism": "hotel"
  }
},
{
  "type": "node",
  "id": 6524188831,
  "lat": 53.0823975,
  "lon": 46.2090728,
  "tags": {
    "name": "Fortuna Guest House",
    "tourism": "hotel"
  }
},
{
  "type": "node",
  "id": 6524191470,
  "lat": 53.0903857,
  "lon": 46.5623727,
  "tags": {
    "name": "София",
    "tourism": "hotel"
  }
},
{
  "type": "node",
  "id": 6549963885,
  "lat": 54.0822308,
  "lon": 52.3753405,
  "tags": {
    "tourism": "hotel"
  }
},
{
  "type": "node",
  "id": 6565538785,
  "lat": 48.6138215,
  "lon": 42.8091044,
  "tags": {
    "name": "Лазурное",
    "tourism": "hotel"
  }
},
{
  "type": "node",
  "id": 6576407212,
  "lat": 53.6603542,
  "lon": 53.6557926,
  "tags": {
    "tourism": "hotel"
  }
},
{
  "type": "node",
  "id": 6580809385,
  "lat": 50.0961438,
  "lon": 45.4177919,
  "tags": {
    "name": "Глория",
    "tourism": "hotel"
  }
},
{
  "type": "node",
  "id": 6594824385,
  "lat": 51.7860031,
  "lon": 55.4580994,
  "tags": {
    "addr:housenumber": "1",
    "addr:postcode": "460520",
    "addr:street": "Центральная улица",
    "email": "hotelvzlet@ya.ru",
    "internet_access": "wlan",
    "name": "Взлёт",
    "name:en": "Hotel Vzlet Airport Orenburg",
    "opening_hours": "24/7",
    "phone": "+79619426060",
    "tourism": "hotel",
    "website": "https://www.hotelvzlet.ru"
  }
},
{
  "type": "node",
  "id": 6635120485,
  "lat": 53.8122727,
  "lon": 58.6410540,
  "tags": {
    "tourism": "hotel"
  }
},
{
  "type": "node",
  "id": 6638505213,
  "lat": 53.6020056,
  "lon": 58.6216137,
  "tags": {
    "name": "отель Надежда",
    "phone": "+7 912 7749042",
    "tourism": "hotel",
    "website": "http://nadejda-bannoe.ru"
  }
},
{
  "type": "node",
  "id": 6660389355,
  "lat": 51.5635243,
  "lon": 46.2693296,
  "tags": {
    "name": "Сказка",
    "tourism": "hotel"
  }
},
{
  "type": "node",
  "id": 6681715666,
  "lat": 52.1911309,
  "lon": 56.7207277,
  "tags": {
    "tourism": "hotel"
  }
},
{
  "type": "node",
  "id": 6709972108,
  "lat": 54.2036554,
  "lon": 45.1481516,
  "tags": {
    "name": "Вастома",
    "phone": "+7 (8342) 29-15-24;+7 (8342) 30-70-76;+7 (927) 276-70-76",
    "tourism": "hotel"
  }
},
{
  "type": "node",
  "id": 6717689467,
  "lat": 49.7604969,
  "lon": 43.6330895,
  "tags": {
    "name": "Ведомственная гостиница МВД",
    "tourism": "hotel"
  }
},
{
  "type": "node",
  "id": 6724428874,
  "lat": 49.1677673,
  "lon": 40.6012629,
  "tags": {
    "name": "Гостевой дом \"Как дома\"",
    "tourism": "hotel"
  }
},
{
  "type": "node",
  "id": 6732871384,
  "lat": 48.5734515,
  "lon": 44.4276706,
  "tags": {
    "name": "Bravo",
    "tourism": "hotel",
    "wheelchair": "limited"
  }
},
{
  "type": "node",
  "id": 6766766806,
  "lat": 53.1936762,
  "lon": 50.1312175,
  "tags": {
    "addr:housenumber": "19",
    "addr:street": "Чернореченская улица",
    "name": "Общежитие",
    "tourism": "hotel"
  }
},
{
  "type": "node",
  "id": 6779307678,
  "lat": 50.7856647,
  "lon": 42.0028004,
  "tags": {
    "name": "Отель Дарэн",
    "tourism": "hotel"
  }
},
{
  "type": "node",
  "id": 6788658597,
  "lat": 50.4482345,
  "lon": 40.1546905,
  "tags": {
    "name": "Pavlovsk Hotel",
    "tourism": "hotel"
  }
},
{
  "type": "node",
  "id": 6796254785,
  "lat": 54.8221800,
  "lon": 56.0828097,
  "tags": {
    "addr:housenumber": "43",
    "addr:street": "улица Победы",
    "internet_access": "wlan",
    "name": "Альфа",
    "name:en": "Hotel Alpha",
    "opening_hours": "24/7",
    "phone": "+7 347 2646929",
    "tourism": "hotel",
    "website": "https://alpha-ufa.ru/"
  }
},
{
  "type": "node",
  "id": 6806328377,
  "lat": 48.7132847,
  "lon": 44.5109738,
  "tags": {
    "addr:city": "Волгоград",
    "addr:housenumber": "7",
    "addr:street": "улица Михаила Балонина",
    "internet_access": "wlan",
    "internet_access:fee": "no",
    "name": "Park Inn by Radisson Volgograd",
    "name:en": "Cosmos",
    "name:ru": "Cosmos",
    "opening_hours": "24/7",
    "phone": "+7 844 226 81 25",
    "rooms": "149",
    "tourism": "hotel",
    "website": "https://volgograd.cosmosgroup.ru/"
  }
},
{
  "type": "node",
  "id": 6853358111,
  "lat": 53.3425399,
  "lon": 58.5070444,
  "tags": {
    "name": "Гостиный двор",
    "opening_hours": "Mo-Fr 09:00-18:00",
    "phone": "+7 927 3582888",
    "tourism": "hotel"
  }
},
{
  "type": "node",
  "id": 6874222887,
  "lat": 54.2941333,
  "lon": 40.8520805,
  "tags": {
    "email": "sadmailbox123@gmail.com",
    "internet_access": "wlan",
    "name": "Стоп-Отель",
    "name:en": "Stop-Hotel",
    "opening_hours": "24/7",
    "operator": "Авраам Данилович",
    "phone": "89307873545",
    "tourism": "hotel"
  }
},
{
  "type": "node",
  "id": 6903695322,
  "lat": 54.2353217,
  "lon": 45.0711874,
  "tags": {
    "addr:city": "село Блохино",
    "addr:housenumber": "98",
    "addr:postcode": "431520",
    "addr:street": "Заречная улица",
    "name": "Отель \"5\"",
    "tourism": "hotel"
  }
},
{
  "type": "node",
  "id": 6959750941,
  "lat": 54.9309563,
  "lon": 41.3489556,
  "tags": {
    "name": "Бригантина",
    "opening_hours": "24/7",
    "tourism": "hotel"
  }
},
{
  "type": "node",
  "id": 6959750953,
  "lat": 54.9428472,
  "lon": 41.4024496,
  "tags": {
    "contact:mobile": "+7 915 628-59-26",
    "contact:website": "https://leis.vkasimove.ru/",
    "internet_access": "wlan",
    "internet_access:fee": "no",
    "name": "Леис",
    "tourism": "hotel"
  }
},
{
  "type": "node",
  "id": 6959750954,
  "lat": 54.9504742,
  "lon": 41.3245100,
  "tags": {
    "contact:mobile": "+7 961 009-11-80",
    "contact:vk": "https://vk.com/chinar062",
    "internet_access": "wlan",
    "internet_access:fee": "no",
    "name": "Chinar",
    "rooms": "8",
    "tourism": "hotel"
  }
},
{
  "type": "node",
  "id": 6959750961,
  "lat": 54.9502323,
  "lon": 41.3319585,
  "tags": {
    "contact:mobile": "+7 930 876-75-76",
    "contact:vk": "https://vk.com/zhukovagora",
    "contact:website": "https://zhukovagora.ru/",
    "internet_access": "wlan",
    "internet_access:fee": "no",
    "name": "Жукова гора",
    "opening_hours": "24/7",
    "rooms": "9",
    "tourism": "hotel"
  }
},
{
  "type": "node",
  "id": 6976027748,
  "lat": 54.9337514,
  "lon": 58.0160416,
  "tags": {
    "name": "Макс",
    "opening_hours": "24/7",
    "tourism": "hotel"
  }
},
{
  "type": "node",
  "id": 6989072446,
  "lat": 54.9464864,
  "lon": 41.4107222,
  "tags": {
    "contact:mobile": "+7 951 104-05-21",
    "contact:phone": "+7 49131 4-35-56",
    "contact:website": "http://dilijans-hotel.ru",
    "internet_access": "wlan",
    "internet_access:fee": "no",
    "name": "Дилижанс",
    "reservation": "yes",
    "rooms": "18",
    "tourism": "hotel"
  }
},
{
  "type": "node",
  "id": 6989072454,
  "lat": 54.9366741,
  "lon": 41.4057501,
  "tags": {
    "contact:mobile": "+7 900 608-11-12",
    "contact:phone": "+7 49131 4-46-91",
    "contact:website": "https://kasimovhotel.ru/",
    "internet_access": "wlan",
    "name": "Касимов",
    "reservation": "yes",
    "rooms": "30",
    "tourism": "hotel"
  }
},
{
  "type": "node",
  "id": 6991707459,
  "lat": 53.3895081,
  "lon": 60.9904356,
  "tags": {
    "internet_access": "wlan",
    "name": "Тамерлан",
    "rooms": "16",
    "tourism": "hotel"
  }
},
{
  "type": "node",
  "id": 7056264922,
  "lat": 54.9202362,
  "lon": 58.0514042,
  "tags": {
    "name": "Лесная сказка",
    "tourism": "hotel"
  }
},
{
  "type": "node",
  "id": 7062894489,
  "lat": 53.9299413,
  "lon": 43.1759032,
  "tags": {
    "tourism": "hotel"
  }
},
{
  "type": "node",
  "id": 7132466176,
  "lat": 53.4433373,
  "lon": 50.1735657,
  "tags": {
    "tourism": "hotel"
  }
},
{
  "type": "node",
  "id": 7207915584,
  "lat": 48.6898389,
  "lon": 44.4949275,
  "tags": {
    "name": "ДОСААФ России Гостиница \"Царицынская\"",
    "tourism": "hotel"
  }
},
{
  "type": "node",
  "id": 7207923892,
  "lat": 48.7039663,
  "lon": 44.4508785,
  "tags": {
    "name": "ИП Акопян Варлам Жирайрович (мини-гостиница) \"Спартак\"",
    "tourism": "hotel"
  }
},
{
  "type": "node",
  "id": 7207940197,
  "lat": 48.6943987,
  "lon": 44.4662836,
  "tags": {
    "name": "ИП Аратюнян А.Г. Parallel (мини-гостиница)",
    "tourism": "hotel"
  }
},
{
  "type": "node",
  "id": 7207945297,
  "lat": 48.6906570,
  "lon": 44.4871943,
  "tags": {
    "name": "ИП Зарбалиев Рамил Сираджеддин оглы \"Estel\" (гостиница)",
    "tourism": "hotel"
  }
},
{
  "type": "node",
  "id": 7207952800,
  "lat": 48.7019712,
  "lon": 44.4929005,
  "tags": {
    "name": "ИП Киселева Оксана Николаевна Hotel Marton (гостиница)",
    "tourism": "hotel"
  }
},
{
  "type": "node",
  "id": 7207956358,
  "lat": 48.6915747,
  "lon": 44.4615444,
  "tags": {
    "name": "ИП Киселева Оксана Николаевна Hotel Marton (гостиница)",
    "tourism": "hotel"
  }
},
{
  "type": "node",
  "id": 7207962154,
  "lat": 48.6909720,
  "lon": 44.4548657,
  "tags": {
    "name": "ООО \"Майкл\" (гостиница",
    "tourism": "hotel"
  }
},
{
  "type": "node",
  "id": 7207962320,
  "lat": 48.7019425,
  "lon": 44.4928529,
  "tags": {
    "name": "ИП Киселева Оксана Николаевна Villa Sancho (гостиница)",
    "tourism": "hotel"
  }
},
{
  "type": "node",
  "id": 7207962431,
  "lat": 48.7000282,
  "lon": 44.4934525,
  "tags": {
    "name": "ИП Тихомиров Константини Николаевич  Отель \"Friends\"",
    "tourism": "hotel"
  }
},
{
  "type": "node",
  "id": 7207975904,
  "lat": 48.6952276,
  "lon": 44.4415093,
  "tags": {
    "name": "ООО\"Бриз\"(гостиница)",
    "tourism": "hotel"
  }
},
{
  "type": "node",
  "id": 7207976137,
  "lat": 48.6848902,
  "lon": 44.4779448,
  "tags": {
    "name": "ООО \"Оазис\" \"SQ\" (гостиница)",
    "tourism": "hotel"
  }
},
{
  "type": "node",
  "id": 7207991084,
  "lat": 48.6953447,
  "lon": 44.4957708,
  "tags": {
    "description": "ООО \"Уют\"",
    "name": "Отель Южный",
    "tourism": "hotel"
  }
},
{
  "type": "node",
  "id": 7221686591,
  "lat": 48.6979406,
  "lon": 44.4815128,
  "tags": {
    "name": "ООО \"Визит\"Гостиничный комплекс \"Плаза\"",
    "tourism": "hotel"
  }
},
{
  "type": "node",
  "id": 7229464143,
  "lat": 51.9022270,
  "lon": 40.4546212,
  "tags": {
    "tourism": "hotel"
  }
},
{
  "type": "node",
  "id": 7232316685,
  "lat": 49.7892745,
  "lon": 43.6515399,
  "tags": {
    "internet_access": "wlan",
    "name": "Фролово",
    "name:en": "Frolovo",
    "opening_hours": "24/7",
    "tourism": "hotel"
  }
},
{
  "type": "node",
  "id": 7276402686,
  "lat": 54.2186297,
  "lon": 58.5835299,
  "tags": {
    "name": "Судовая гора",
    "name:en": "Sudovaya gora",
    "tourism": "hotel"
  }
},
{
  "type": "node",
  "id": 7311810110,
  "lat": 53.3570636,
  "lon": 50.2045449,
  "tags": {
    "name": "Мираж",
    "tourism": "hotel"
  }
},
{
  "type": "node",
  "id": 7316681585,
  "lat": 50.4532589,
  "lon": 40.1314887,
  "tags": {
    "internet_access": "wlan",
    "name": "Гранд Отель Экспресс",
    "name:en": "Grand Hotel Express",
    "tourism": "hotel"
  }
},
{
  "type": "node",
  "id": 7341147792,
  "lat": 49.6355502,
  "lon": 41.7089161,
  "tags": {
    "name": "Маяк",
    "tourism": "hotel"
  }
},
{
  "type": "node",
  "id": 7369704066,
  "lat": 53.2267343,
  "lon": 50.1807082,
  "tags": {
    "tourism": "hotel"
  }
},
{
  "type": "node",
  "id": 7394220800,
  "lat": 53.1945835,
  "lon": 45.0359151,
  "tags": {
    "name": "Авангард",
    "tourism": "hotel"
  }
},
{
  "type": "node",
  "id": 7487214923,
  "lat": 54.4719769,
  "lon": 40.2019390,
  "tags": {
    "name": "База отдыха \"Окский берег\"",
    "tourism": "hotel",
    "website": "https://otel-oka.ru"
  }
},
{
  "type": "node",
  "id": 7624426119,
  "lat": 53.2217704,
  "lon": 50.1942491,
  "tags": {
    "name": "Четыре сезона",
    "tourism": "hotel"
  }
},
{
  "type": "node",
  "id": 7631525048,
  "lat": 53.9439281,
  "lon": 43.2953067,
  "tags": {
    "leisure": "resort",
    "name": "База отдыха Кленовая роща",
    "tourism": "hotel"
  }
},
{
  "type": "node",
  "id": 7639957139,
  "lat": 53.7949793,
  "lon": 60.6581676,
  "tags": {
    "contact:phone": "+7 35169 21863",
    "internet_access": "wlan",
    "internet_access:fee": "no",
    "tourism": "hotel"
  }
},
{
  "type": "node",
  "id": 7764582685,
  "lat": 53.3572668,
  "lon": 51.3390567,
  "tags": {
    "name": "Гостиный двор",
    "tourism": "hotel"
  }
},
{
  "type": "node",
  "id": 7797253681,
  "lat": 53.5600810,
  "lon": 56.0850294,
  "tags": {
    "name": "Эко отель Юрты",
    "tourism": "hotel"
  }
},
{
  "type": "node",
  "id": 7812632013,
  "lat": 53.1067459,
  "lon": 49.9497124,
  "tags": {
    "tourism": "hotel"
  }
},
{
  "type": "node",
  "id": 7816947422,
  "lat": 53.5417212,
  "lon": 49.3489900,
  "tags": {
    "contact:phone": "+7 8482 537070;+7 8482 507770",
    "contact:viber": "+7 927 2681144",
    "contact:website": "http://www.ataman-tlt.ru/",
    "contact:whatsapp": "+7 927 2681144",
    "name": "Атаман",
    "tourism": "hotel"
  }
},
{
  "type": "node",
  "id": 7839799932,
  "lat": 52.4043826,
  "lon": 53.1682116,
  "tags": {
    "name": "Парус",
    "tourism": "hotel"
  }
},
{
  "type": "node",
  "id": 7873089880,
  "lat": 53.2215893,
  "lon": 44.9903481,
  "tags": {
    "name": "Леон",
    "tourism": "hotel"
  }
},
{
  "type": "node",
  "id": 7896609485,
  "lat": 48.6419983,
  "lon": 42.9249992,
  "tags": {
    "addr:housenumber": "28А",
    "addr:postcode": "404412",
    "addr:street": "Жирковский, Крестьянская",
    "name": "Адмирал",
    "opening_hours": "24/7",
    "phone": "+7 84473 22345",
    "tourism": "hotel"
  }
},
{
  "type": "node",
  "id": 7925232085,
  "lat": 53.3198344,
  "lon": 54.1136510,
  "tags": {
    "name": "Гостиница Вояж",
    "tourism": "hotel"
  }
},
{
  "type": "node",
  "id": 7932338185,
  "lat": 54.9284050,
  "lon": 58.1432483,
  "tags": {
    "name": "Гостиница Алла",
    "phone": "89127957189",
    "tourism": "hotel"
  }
},
{
  "type": "node",
  "id": 7944516885,
  "lat": 52.7178240,
  "lon": 56.6362912,
  "tags": {
    "name": "Гостиница Мраково",
    "tourism": "hotel"
  }
},
{
  "type": "node",
  "id": 7948018485,
  "lat": 52.9264020,
  "lon": 54.7147286,
  "tags": {
    "name": "Севан",
    "tourism": "hotel"
  }
},
{
  "type": "node",
  "id": 7963669685,
  "lat": 52.9231949,
  "lon": 54.7176552,
  "tags": {
    "addr:housenumber": "8Б",
    "addr:street": "Автозаправочная улица",
    "internet_access": "wlan",
    "name": "Комильфо",
    "opening_hours": "24/7",
    "phone": "+79128481185",
    "tourism": "hotel"
  }
},
{
  "type": "node",
  "id": 7963669785,
  "lat": 52.9224165,
  "lon": 54.7163500,
  "tags": {
    "name": "Маяк",
    "tourism": "hotel"
  }
},
{
  "type": "node",
  "id": 7983432485,
  "lat": 54.3355683,
  "lon": 48.3766219,
  "tags": {
    "internet_access": "wlan",
    "tourism": "hotel"
  }
},
{
  "type": "node",
  "id": 7989603985,
  "lat": 54.6658218,
  "lon": 55.4328118,
  "tags": {
    "addr:housenumber": "1",
    "addr:street": "1431 км трассы М-5 близ Арслановской развязки",
    "internet_access": "wlan",
    "name": "Гостиница \"Чишмы М-5\"",
    "name:en": "Hotel Chishmy M-5",
    "opening_hours": "24/7",
    "phone": "+79273120787",
    "tourism": "hotel"
  }
},
{
  "type": "node",
  "id": 8111546764,
  "lat": 50.0812375,
  "lon": 43.2768849,
  "tags": {
    "addr:city": "Михайловка",
    "addr:housenumber": "103",
    "addr:street": "улица Крупской",
    "name": "Гостиница \"Жемчужина\"",
    "tourism": "hotel"
  }
},
{
  "type": "node",
  "id": 8111583724,
  "lat": 50.0701561,
  "lon": 43.2398148,
  "tags": {
    "addr:city": "Михайловка",
    "addr:housenumber": "89А",
    "addr:street": "улица Коммуны",
    "name": "Гостиница \"Комфорт\"",
    "tourism": "hotel"
  }
},
{
  "type": "node",
  "id": 8147991317,
  "lat": 53.8873098,
  "lon": 51.2411937,
  "tags": {
    "name": "Благодарю",
    "tourism": "hotel"
  }
},
{
  "type": "node",
  "id": 8208091826,
  "lat": 50.2916684,
  "lon": 57.1896984,
  "tags": {
    "addr:city": "Актобе",
    "addr:housenumber": "5",
    "addr:street": "улица Отегена Сеитова",
    "brand": "Ibis",
    "brand:wikidata": "Q920166",
    "brand:wikipedia": "en:Ibis (hotel)",
    "name": "Ibis",
    "tourism": "hotel"
  }
},
{
  "type": "node",
  "id": 8239478104,
  "lat": 54.2891627,
  "lon": 50.4829276,
  "tags": {
    "tourism": "hotel"
  }
},
{
  "type": "node",
  "id": 8256348887,
  "lat": 54.8791482,
  "lon": 60.2413219,
  "tags": {
    "name": "Деревенька",
    "tourism": "hotel"
  }
},
{
  "type": "node",
  "id": 8261199450,
  "lat": 54.7610013,
  "lon": 56.3912531,
  "tags": {
    "name": "Огонёк",
    "name:ru": "Огонёк",
    "tourism": "hotel"
  }
},
{
  "type": "node",
  "id": 8267031799,
  "lat": 54.9218838,
  "lon": 57.4147721,
  "tags": {
    "tourism": "hotel"
  }
},
{
  "type": "node",
  "id": 8278468682,
  "lat": 54.9711843,
  "lon": 57.9176514,
  "tags": {
    "name": "МакДан",
    "tourism": "hotel"
  }
},
{
  "type": "node",
  "id": 8292960623,
  "lat": 54.4258780,
  "lon": 53.4389249,
  "tags": {
    "tourism": "hotel"
  }
},
{
  "type": "node",
  "id": 8293238627,
  "lat": 54.4328870,
  "lon": 53.4722723,
  "tags": {
    "tourism": "hotel"
  }
},
{
  "type": "node",
  "id": 8300797716,
  "lat": 54.0757271,
  "lon": 52.2626081,
  "tags": {
    "tourism": "hotel"
  }
},
{
  "type": "node",
  "id": 8300806283,
  "lat": 54.0659521,
  "lon": 52.1430087,
  "tags": {
    "tourism": "hotel"
  }
},
{
  "type": "node",
  "id": 8300806284,
  "lat": 54.0654759,
  "lon": 52.1418899,
  "tags": {
    "tourism": "hotel"
  }
},
{
  "type": "node",
  "id": 8300806287,
  "lat": 54.0649814,
  "lon": 52.1449616,
  "tags": {
    "tourism": "hotel"
  }
},
{
  "type": "node",
  "id": 8485490804,
  "lat": 54.3199817,
  "lon": 48.3954061,
  "tags": {
    "name": "Бутик отель 1881",
    "tourism": "hotel",
    "wheelchair": "no"
  }
},
{
  "type": "node",
  "id": 8521187577,
  "lat": 54.7305307,
  "lon": 55.9567165,
  "tags": {
    "check_date": "2023-07-24",
    "contact:email": "info@dopline.ru",
    "contact:facebook": "https://facebook.com/DoplineTourism",
    "contact:instagram": "https://instagram.com/doplinetourist",
    "contact:phone": "+7 347 2727787;+7 917 4370235",
    "contact:vk": "https://vk.com/dopline",
    "contact:website": "https://www.dopline.ru/",
    "name": "Доплайн",
    "opening_hours": "Mo-Fr 08:00-20:00;Sa-Su 10:00-19:00",
    "operator": "ООО Доплайн",
    "tourism": "hotel"
  }
},
{
  "type": "node",
  "id": 8680874727,
  "lat": 53.5011258,
  "lon": 49.2532502,
  "tags": {
    "name": "Жара",
    "tourism": "hotel"
  }
},
{
  "type": "node",
  "id": 8681834794,
  "lat": 50.2952401,
  "lon": 57.6067084,
  "tags": {
    "name": "Alem",
    "tourism": "hotel"
  }
},
{
  "type": "node",
  "id": 8690411618,
  "lat": 51.9977137,
  "lon": 46.6741665,
  "tags": {
    "tourism": "hotel"
  }
},
{
  "type": "node",
  "id": 8739533617,
  "lat": 51.5272324,
  "lon": 46.0291131,
  "tags": {
    "email": "onegin.sar@mail.ru",
    "internet_access": "wlan",
    "name": "Бутик-отель \"Онегин\"",
    "opening_hours": "24/7",
    "phone": "+7 8452 22 34 17",
    "tourism": "hotel",
    "website": "https://hotel-onegin.ru/"
  }
},
{
  "type": "node",
  "id": 8739767617,
  "lat": 52.7398084,
  "lon": 41.4568180,
  "tags": {
    "email": "planieta.spa@mail.ru",
    "internet_access": "wlan",
    "name": "Планета Спа",
    "opening_hours": "24/7",
    "phone": "+7 4752 49 28 25",
    "tourism": "hotel",
    "website": "https://planetaspa68.ru/"
  }
},
{
  "type": "node",
  "id": 8752425605,
  "lat": 53.1055230,
  "lon": 49.9565030,
  "tags": {
    "contact:phone": "+7 846 3542020;+7 927 0104385;+7 927 2053654",
    "contact:website": "https://гостиницафеникс.рф",
    "name": "Феникс",
    "opening_hours": "24/7",
    "tourism": "hotel"
  }
},
{
  "type": "node",
  "id": 8765032217,
  "lat": 51.5265954,
  "lon": 46.0050508,
  "tags": {
    "email": "info@polina-hotel.ru",
    "internet_access": "wlan",
    "name": "Полина",
    "opening_hours": "24/7",
    "phone": "+78452390272",
    "tourism": "hotel",
    "website": "https://polina-hotel.ru/"
  }
},
{
  "type": "node",
  "id": 8765093229,
  "lat": 51.5386411,
  "lon": 46.0468176,
  "tags": {
    "email": "Imperialotel146@gmail.com",
    "internet_access": "wlan",
    "name": "Империал",
    "opening_hours": "24/7",
    "phone": "+7 937 224 23 30",
    "tourism": "hotel",
    "website": "https://отель-империал.рф"
  }
},
{
  "type": "node",
  "id": 8765302017,
  "lat": 51.5283887,
  "lon": 46.0587768,
  "tags": {
    "internet_access": "wlan",
    "name": "Фламинго",
    "opening_hours": "24/7",
    "phone": "+7 938 203 26 25",
    "tourism": "hotel"
  }
},
{
  "type": "node",
  "id": 8811103618,
  "lat": 48.6948900,
  "lon": 44.4945905,
  "tags": {
    "name": "Южный",
    "tourism": "hotel"
  }
},
{
  "type": "node",
  "id": 8830870118,
  "lat": 54.6134111,
  "lon": 58.7655629,
  "tags": {
    "name": "Таежное",
    "tourism": "hotel"
  }
},
{
  "type": "node",
  "id": 8850542119,
  "lat": 53.8101831,
  "lon": 58.6352503,
  "tags": {
    "name": "Бунгало клаб",
    "name:en": "Bungalo club",
    "tourism": "hotel"
  }
},
{
  "type": "node",
  "id": 8935851857,
  "lat": 52.6833330,
  "lon": 54.4121799,
  "tags": {
    "name": "Факел",
    "tourism": "hotel"
  }
},
{
  "type": "node",
  "id": 8950013123,
  "lat": 53.6262589,
  "lon": 58.6109123,
  "tags": {
    "addr:housenumber": "16",
    "addr:street": "Лесная улица",
    "name": "Кантри",
    "tourism": "hotel",
    "website": "https://cantri-bannoe.ru/"
  }
},
{
  "type": "node",
  "id": 8953138665,
  "lat": 53.6024607,
  "lon": 58.6214505,
  "tags": {
    "name": "Ковка",
    "tourism": "hotel"
  }
},
{
  "type": "node",
  "id": 8953140511,
  "lat": 53.6020922,
  "lon": 58.6203748,
  "tags": {
    "name": "Villa Blanca",
    "tourism": "hotel"
  }
},
{
  "type": "node",
  "id": 8953614154,
  "lat": 50.2750362,
  "lon": 57.1721018,
  "tags": {
    "name": "Baitau",
    "tourism": "hotel"
  }
},
{
  "type": "node",
  "id": 8959827717,
  "lat": 51.9452171,
  "lon": 43.4920769,
  "tags": {
    "addr:housenumber": "55",
    "addr:street": "улица Каплунова",
    "name": "Хопер",
    "tourism": "hotel"
  }
},
{
  "type": "node",
  "id": 8980222618,
  "lat": 53.0593519,
  "lon": 60.6229458,
  "tags": {
    "name": "Привилегия",
    "tourism": "hotel"
  }
},
{
  "type": "node",
  "id": 8997826565,
  "lat": 53.2263520,
  "lon": 44.8997993,
  "tags": {
    "addr:housenumber": "2А",
    "addr:street": "улица Лядова",
    "internet_access": "wlan",
    "internet_access:fee": "customers",
    "name": "Авангард",
    "tourism": "hotel",
    "website": "https://arbekovo.avangard-otel.ru/kontakti/"
  }
},
{
  "type": "node",
  "id": 9028863660,
  "lat": 52.9852684,
  "lon": 42.9987205,
  "tags": {
    "name": "Благодать",
    "tourism": "hotel"
  }
},
{
  "type": "node",
  "id": 9038041575,
  "lat": 54.2645333,
  "lon": 52.0316174,
  "tags": {
    "tourism": "hotel"
  }
},
{
  "type": "node",
  "id": 9045758975,
  "lat": 50.5283304,
  "lon": 40.0830999,
  "tags": {
    "internet_access": "wlan",
    "name": "Ной",
    "tourism": "hotel"
  }
},
{
  "type": "node",
  "id": 9049576185,
  "lat": 54.1321630,
  "lon": 51.5363856,
  "tags": {
    "addr:city": "Исаклы",
    "addr:housenumber": "83",
    "addr:street": "Куйбышевская улица",
    "name": "Вектор-С",
    "phone": "+7 (84654) 2-10-44",
    "tourism": "hotel"
  }
},
{
  "type": "node",
  "id": 9049638492,
  "lat": 54.2028261,
  "lon": 50.4716736,
  "tags": {
    "email": "nadegdaschmidt1@mail.ru",
    "name": "У Карловича",
    "tourism": "hotel"
  }
},
{
  "type": "node",
  "id": 9101353262,
  "lat": 54.4345867,
  "lon": 51.4670235,
  "tags": {
    "name": "Колос",
    "tourism": "hotel"
  }
},
{
  "type": "node",
  "id": 9141475534,
  "lat": 54.1804165,
  "lon": 45.1776343,
  "tags": {
    "brand": "Radisson",
    "brand:wikidata": "Q1751979",
    "brand:wikipedia": "en:Radisson Hotels",
    "name": "Radisson",
    "tourism": "hotel"
  }
},
{
  "type": "node",
  "id": 9170199317,
  "lat": 51.9836190,
  "lon": 46.6620333,
  "tags": {
    "addr:housenumber": "20",
    "addr:street": "улица Клочкова",
    "name": "Уют",
    "tourism": "hotel"
  }
},
{
  "type": "node",
  "id": 9244960264,
  "lat": 50.2826960,
  "lon": 57.2130789,
  "tags": {
    "addr:city": "Актобе",
    "addr:housenumber": "18",
    "addr:street": "улица 8 марта",
    "internet_access": "wlan",
    "internet_access:fee": "no",
    "name": "Fresh",
    "tourism": "hotel"
  }
},
{
  "type": "node",
  "id": 9281632637,
  "lat": 48.7797520,
  "lon": 44.4668699,
  "tags": {
    "addr:housenumber": "71",
    "addr:street": "Баррикадная улица",
    "name": "Уют",
    "tourism": "hotel"
  }
},
{
  "type": "node",
  "id": 9282713831,
  "lat": 48.7377880,
  "lon": 44.4797368,
  "tags": {
    "name": "Lucky House",
    "tourism": "hotel"
  }
},
{
  "type": "node",
  "id": 9283734904,
  "lat": 48.7262220,
  "lon": 44.4642278,
  "tags": {
    "name": "Кани",
    "tourism": "hotel",
    "website": "http://kanihotel.ru/"
  }
},
{
  "type": "node",
  "id": 9290706172,
  "lat": 49.0563508,
  "lon": 44.0337174,
  "tags": {
    "tourism": "hotel"
  }
},
{
  "type": "node",
  "id": 9292774036,
  "lat": 48.7506375,
  "lon": 44.7987322,
  "tags": {
    "name": "XXI век",
    "tourism": "hotel"
  }
},
{
  "type": "node",
  "id": 9297733579,
  "lat": 48.8048191,
  "lon": 44.7123850,
  "tags": {
    "name": "Каро",
    "tourism": "hotel"
  }
},
{
  "type": "node",
  "id": 9309258521,
  "lat": 52.9695936,
  "lon": 50.2805787,
  "tags": {
    "tourism": "hotel"
  }
},
{
  "type": "node",
  "id": 9309258790,
  "lat": 53.0105625,
  "lon": 50.0833468,
  "tags": {
    "tourism": "hotel"
  }
},
{
  "type": "node",
  "id": 9312364321,
  "lat": 53.5100994,
  "lon": 50.1432383,
  "tags": {
    "internet_access": "yes",
    "name": "Аэроотель",
    "tourism": "hotel",
    "website": "https://aviaotel.ru/"
  }
},
{
  "type": "node",
  "id": 9356801048,
  "lat": 48.7411341,
  "lon": 44.5324352,
  "tags": {
    "name": "Сталинград",
    "tourism": "hotel",
    "website": "http://www.hotel-stalingrad.ru/"
  }
},
{
  "type": "node",
  "id": 9423589836,
  "lat": 54.4054930,
  "lon": 40.3622815,
  "tags": {
    "tourism": "hotel"
  }
},
{
  "type": "node",
  "id": 9511932904,
  "lat": 50.0991849,
  "lon": 45.3825075,
  "tags": {
    "name": "Авиабаза",
    "tourism": "hotel",
    "website": "https://aviabaza-kam.ru/"
  }
},
{
  "type": "node",
  "id": 9632430463,
  "lat": 54.6271504,
  "lon": 41.1535800,
  "tags": {
    "tourism": "hotel"
  }
},
{
  "type": "node",
  "id": 9669794316,
  "lat": 54.3632485,
  "lon": 60.7894406,
  "tags": {
    "name": "Станица",
    "tourism": "hotel"
  }
},
{
  "type": "node",
  "id": 9680171205,
  "lat": 53.7896937,
  "lon": 60.6634033,
  "tags": {
    "contact:phone": "+7 950 7425120",
    "name": "Вояж",
    "tourism": "hotel"
  }
},
{
  "type": "node",
  "id": 9702273782,
  "lat": 53.2053830,
  "lon": 50.1604164,
  "tags": {
    "addr:housenumber": "36",
    "addr:street": "Артиллерийская улица",
    "check_date": "2022-04-29",
    "name": "Dakota",
    "tourism": "hotel"
  }
},
{
  "type": "node",
  "id": 9813921057,
  "lat": 53.2060110,
  "lon": 50.1595872,
  "tags": {
    "check_date": "2022-06-13",
    "name": "Московская",
    "tourism": "hotel"
  }
},
{
  "type": "node",
  "id": 9850201024,
  "lat": 53.2489031,
  "lon": 50.4795548,
  "tags": {
    "addr:city": "Алексеевка",
    "addr:housenumber": "9",
    "addr:street": "Северный переулок",
    "name": "Алексеевская застава",
    "tourism": "hotel"
  }
},
{
  "type": "node",
  "id": 9872208017,
  "lat": 53.4869861,
  "lon": 50.4137606,
  "tags": {
    "addr:housenumber": "3",
    "addr:street": "Придорожная улица",
    "email": "voyazhotel@yandex.ru",
    "name": "Вояж",
    "name:en": "Voyage",
    "opening_hours": "24/7",
    "phone": "+79372111139",
    "tourism": "hotel",
    "website": "https://voyazhotel.ru/"
  }
},
{
  "type": "node",
  "id": 9971895375,
  "lat": 48.8113065,
  "lon": 44.7351494,
  "tags": {
    "addr:city": "Волжский",
    "addr:housenumber": "9",
    "addr:postcode": "404130",
    "addr:street": "улица имени Ф.Г. Логинова",
    "name": "Гостевой двор",
    "phone": "+7 (905) 330-69-99",
    "tourism": "hotel",
    "website": "ripazian93.wixsite.com"
  }
},
{
  "type": "node",
  "id": 10010509300,
  "lat": 53.5164369,
  "lon": 50.4017121,
  "tags": {
    "tourism": "hotel"
  }
},
{
  "type": "node",
  "id": 10010509303,
  "lat": 53.5167350,
  "lon": 50.3993254,
  "tags": {
    "tourism": "hotel"
  }
},
{
  "type": "node",
  "id": 10026285765,
  "lat": 52.0425730,
  "lon": 47.7746071,
  "tags": {
    "name": "Сова",
    "phone": "+7-906-3061919",
    "tourism": "hotel"
  }
},
{
  "type": "node",
  "id": 10028636923,
  "lat": 53.4883448,
  "lon": 50.4152576,
  "tags": {
    "tourism": "hotel"
  }
},
{
  "type": "node",
  "id": 10029021685,
  "lat": 54.7263654,
  "lon": 55.9466873,
  "tags": {
    "check_date": "2022-09-16",
    "name": "Клеопатра",
    "tourism": "hotel"
  }
},
{
  "type": "node",
  "id": 10064199607,
  "lat": 52.7203184,
  "lon": 58.6509071,
  "tags": {
    "addr:city": "Сибай",
    "addr:housenumber": "45/1",
    "addr:street": "улица Лермонтова",
    "amenity": "cafe",
    "name": "San Marco",
    "phone": "+7 927 348-78-78",
    "tourism": "hotel"
  }
},
{
  "type": "node",
  "id": 10086231317,
  "lat": 54.9884821,
  "lon": 49.0892799,
  "tags": {
    "tourism": "hotel"
  }
},
{
  "type": "node",
  "id": 10094866715,
  "lat": 53.4351981,
  "lon": 50.1238016,
  "tags": {
    "tourism": "hotel"
  }
},
{
  "type": "node",
  "id": 10098164608,
  "lat": 48.8020262,
  "lon": 44.7251942,
  "tags": {
    "addr:city": "Волжский",
    "addr:housenumber": "2м",
    "addr:postcode": "404130",
    "addr:street": "Набережная улица",
    "internet_access": "wlan",
    "internet_access:fee": "customers",
    "name": "Mega Space",
    "phone": "+7‒937‒088‒90‒11",
    "tourism": "hotel"
  }
},
{
  "type": "node",
  "id": 10142583024,
  "lat": 52.7167446,
  "lon": 58.6621030,
  "tags": {
    "name": "Анна",
    "tourism": "hotel"
  }
},
{
  "type": "node",
  "id": 10180822617,
  "lat": 49.9944171,
  "lon": 40.6551940,
  "tags": {
    "internet_access": "wlan",
    "name": "Олимп",
    "name:en": "Olimp",
    "opening_hours": "24/7",
    "tourism": "hotel"
  }
},
{
  "type": "node",
  "id": 10183022817,
  "lat": 51.2571722,
  "lon": 58.4444290,
  "tags": {
    "name": "Лето",
    "name:en": "Summer",
    "opening_hours": "24/7",
    "phone": "+7 (3537) 31-31-19",
    "tourism": "hotel",
    "website": "http://otel-sauna-leto.ru/"
  }
},
{
  "type": "node",
  "id": 10210478785,
  "lat": 50.0796076,
  "lon": 43.2373605,
  "tags": {
    "name": "гостиница Себряковская",
    "tourism": "hotel"
  }
},
{
  "type": "node",
  "id": 10231362686,
  "lat": 50.1484440,
  "lon": 43.0787817,
  "tags": {
    "tourism": "hotel"
  }
},
{
  "type": "node",
  "id": 10266975270,
  "lat": 50.4533953,
  "lon": 40.1482192,
  "tags": {
    "name": "Оникс",
    "tourism": "hotel"
  }
},
{
  "type": "node",
  "id": 10276623565,
  "lat": 49.6522741,
  "lon": 41.6999482,
  "tags": {
    "name": "Лесная",
    "tourism": "hotel",
    "website": "http://hotelles.ru/"
  }
},
{
  "type": "node",
  "id": 10301741210,
  "lat": 54.6500166,
  "lon": 57.6999922,
  "tags": {
    "name": "Бедярыш ресорт",
    "name:en": "BEDYARISH resort",
    "phone": "+7-982-323-09-00",
    "tourism": "hotel",
    "website": "https://bedyarish.ru"
  }
},
{
  "type": "node",
  "id": 10653428297,
  "lat": 53.2206317,
  "lon": 50.1572844,
  "tags": {
    "tourism": "hotel"
  }
},
{
  "type": "node",
  "id": 10653568006,
  "lat": 53.2757452,
  "lon": 50.2611176,
  "tags": {
    "tourism": "hotel"
  }
},
{
  "type": "node",
  "id": 10655199922,
  "lat": 53.1943006,
  "lon": 50.1804322,
  "tags": {
    "name": "Макхолл",
    "tourism": "hotel"
  }
},
{
  "type": "node",
  "id": 10656619130,
  "lat": 53.2673114,
  "lon": 50.2408685,
  "tags": {
    "tourism": "hotel"
  }
},
{
  "type": "node",
  "id": 10697393701,
  "lat": 53.5315770,
  "lon": 49.4524480,
  "tags": {
    "contact:email": "gk-barguzin163@yandex.ru",
    "contact:phone": "+7 848 2249599;+7 991 5119190",
    "contact:website": "https://gk-barguzin.ru",
    "name": "Баргузин",
    "opening_hours": "24/7",
    "tourism": "hotel"
  }
},
{
  "type": "node",
  "id": 10726259350,
  "lat": 53.1818530,
  "lon": 45.0100690,
  "tags": {
    "name": "Галерея",
    "tourism": "hotel"
  }
},
{
  "type": "node",
  "id": 10749373105,
  "lat": 54.4783506,
  "lon": 53.5229239,
  "tags": {
    "addr:housenumber": "10",
    "addr:street": "улица Шашина",
    "amenity": "cafe",
    "email": "Feedback@dodopizza.com",
    "internet_access": "wlan",
    "name": "Додо Пицца",
    "name:en": "Hotel \"Star\"",
    "opening_hours": "Mo-Su 09:00-23:00",
    "tourism": "hotel",
    "website": "https://dodopizza.ru/oktyabrskiy/shashina10"
  }
},
{
  "type": "node",
  "id": 10782642227,
  "lat": 52.9041683,
  "lon": 40.4696858,
  "tags": {
    "name": "Маки",
    "tourism": "hotel"
  }
},
{
  "type": "node",
  "id": 10822952476,
  "lat": 53.1894104,
  "lon": 50.1276675,
  "tags": {
    "name": "Самарская шахматная гостиница",
    "tourism": "hotel"
  }
},
{
  "type": "node",
  "id": 10833450335,
  "lat": 54.1969957,
  "lon": 45.1866743,
  "tags": {
    "name": "Монастырска изба",
    "tourism": "hotel"
  }
},
{
  "type": "node",
  "id": 10842142529,
  "lat": 52.7661240,
  "lon": 41.3912049,
  "tags": {
    "check_date": "2023-04-26",
    "tourism": "hotel"
  }
},
{
  "type": "node",
  "id": 10844133457,
  "lat": 54.9018575,
  "lon": 52.3075765,
  "tags": {
    "contact:email": "zidor62@mail.ru",
    "contact:phone": "+7 855 3439034;+7 855 3453606",
    "contact:website": "https://wiardo.ru/",
    "name": "Viardo",
    "opening_hours": "Mo-Su 00:00-00:00",
    "tourism": "hotel"
  }
},
{
  "type": "node",
  "id": 10870969405,
  "lat": 53.0824115,
  "lon": 56.4242139,
  "tags": {
    "name": "Грин парк Чайка",
    "tourism": "hotel"
  }
},
{
  "type": "node",
  "id": 10871527537,
  "lat": 53.1962223,
  "lon": 48.3673637,
  "tags": {
    "name": "Уют",
    "tourism": "hotel"
  }
},
{
  "type": "node",
  "id": 10877932286,
  "lat": 53.1946118,
  "lon": 50.1521815,
  "tags": {
    "name": "Виктория",
    "tourism": "hotel"
  }
},
{
  "type": "node",
  "id": 10880154271,
  "lat": 53.2908479,
  "lon": 51.1868243,
  "tags": {
    "name": "Гостиница спорткомплекса",
    "tourism": "hotel"
  }
},
{
  "type": "node",
  "id": 10881725177,
  "lat": 54.7288171,
  "lon": 55.9766336,
  "tags": {
    "check_date": "2023-05-09",
    "name": "Аджио",
    "tourism": "hotel"
  }
},
{
  "type": "node",
  "id": 10913547349,
  "lat": 53.4184721,
  "lon": 50.0216693,
  "tags": {
    "name": "Ширяево",
    "tourism": "hotel"
  }
},
{
  "type": "node",
  "id": 10923441256,
  "lat": 54.6149186,
  "lon": 55.9223571,
  "tags": {
    "name": "Сказка",
    "tourism": "hotel"
  }
},
{
  "type": "node",
  "id": 10928207844,
  "lat": 53.1420630,
  "lon": 48.4646845,
  "tags": {
    "contact:email": "info@cascade-hotel.ru",
    "contact:phone": "+7 846 4373002;+7 846 4373004",
    "contact:website": "https://cascade-hotel.ru",
    "name": "Cascade",
    "opening_hours": "Mo-Su 00:00-00:00",
    "tourism": "hotel"
  }
},
{
  "type": "node",
  "id": 10976200618,
  "lat": 54.7468824,
  "lon": 56.0023409,
  "tags": {
    "contact:phone": "+7 927 3481747",
    "name": "Тихорецкий",
    "opening_hours": "24/7",
    "tourism": "hotel"
  }
},
{
  "type": "node",
  "id": 10977960305,
  "lat": 53.4235885,
  "lon": 44.6204508,
  "tags": {
    "name": "Родник",
    "tourism": "hotel"
  }
},
{
  "type": "node",
  "id": 10983310205,
  "lat": 53.0977058,
  "lon": 57.4458923,
  "tags": {
    "tourism": "hotel"
  }
},
{
  "type": "node",
  "id": 11032252605,
  "lat": 54.8248375,
  "lon": 56.8893028,
  "tags": {
    "tourism": "hotel"
  }
},
{
  "type": "node",
  "id": 11039965006,
  "lat": 54.8818666,
  "lon": 58.4236351,
  "tags": {
    "addr:postcode": "456120",
    "internet_access": "wlan",
    "name": "Отель Авто",
    "opening_hours": "24/7",
    "phone": "89193272725",
    "tourism": "hotel"
  }
},
{
  "type": "node",
  "id": 11042230428,
  "lat": 50.2249274,
  "lon": 57.1832409,
  "tags": {
    "name": "Южный",
    "tourism": "hotel"
  }
},
{
  "type": "node",
  "id": 11043464651,
  "lat": 50.2420686,
  "lon": 57.1616806,
  "tags": {
    "name": "Keryen",
    "tourism": "hotel"
  }
},
{
  "type": "node",
  "id": 11057903342,
  "lat": 53.2259006,
  "lon": 50.2053285,
  "tags": {
    "name": "Стрелец",
    "tourism": "hotel"
  }
},
{
  "type": "node",
  "id": 11065182016,
  "lat": 54.8749805,
  "lon": 52.3112340,
  "tags": {
    "tourism": "hotel"
  }
},
{
  "type": "node",
  "id": 11083658900,
  "lat": 54.7423678,
  "lon": 56.0058653,
  "tags": {
    "contact:email": "kazhaev.aleks@yandex.ru",
    "contact:phone": "+7 937 8639750",
    "contact:website": "https://family-hotel.2gis.biz",
    "name": "Семья",
    "opening_hours": "24/7",
    "tourism": "hotel"
  }
},
{
  "type": "node",
  "id": 11083658968,
  "lat": 54.6935727,
  "lon": 55.9444535,
  "tags": {
    "contact:email": "corona-ufa@mail.ru",
    "contact:phone": "+7 927 2360976",
    "name": "Корона",
    "opening_hours": "24/7",
    "tourism": "hotel"
  }
},
{
  "type": "node",
  "id": 11093640305,
  "lat": 54.7235566,
  "lon": 55.9440467,
  "tags": {
    "internet_access": "wlan",
    "name": "Нестеров Плаза",
    "name:en": "Nesterov Plaza",
    "tourism": "hotel"
  }
},
{
  "type": "node",
  "id": 11104650631,
  "lat": 53.1856254,
  "lon": 50.1955139,
  "tags": {
    "contact:phone": "+7 937 7900095;+7 967 7267825",
    "name": "ДомС",
    "opening_hours": "24/7",
    "tourism": "hotel"
  }
},
{
  "type": "node",
  "id": 11164817480,
  "lat": 53.2302070,
  "lon": 50.2275799,
  "tags": {
    "check_date": "2023-09-03",
    "contact:vk": "https://vk.com/perviyray_16",
    "name": "1 Рай",
    "phone": "+7 927 898-08-44; +7 927 797-08-22; +7 927 702-19-51",
    "tourism": "hotel"
  }
},
{
  "type": "node",
  "id": 11164817494,
  "lat": 53.2279084,
  "lon": 50.2307842,
  "tags": {
    "check_date": "2023-09-03",
    "name": "Гостиный двор",
    "tourism": "hotel"
  }
},
{
  "type": "node",
  "id": 11232454051,
  "lat": 49.0544539,
  "lon": 40.5154262,
  "tags": {
    "name": "Лето",
    "tourism": "hotel"
  }
},
{
  "type": "node",
  "id": 11232481066,
  "lat": 49.0563403,
  "lon": 40.5134348,
  "tags": {
    "name": "842 Км",
    "tourism": "hotel"
  }
},
{
  "type": "node",
  "id": 11235916512,
  "lat": 53.1902455,
  "lon": 50.0915841,
  "tags": {
    "check_date": "2023-10-03",
    "name": "Русская охота",
    "opening_hours": "12:00-24:00",
    "tourism": "hotel"
  }
},
{
  "type": "node",
  "id": 11250618737,
  "lat": 53.1989047,
  "lon": 50.1126930,
  "tags": {
    "name": "Ost west club",
    "tourism": "hotel"
  }
},
{
  "type": "node",
  "id": 11270209440,
  "lat": 48.6892757,
  "lon": 44.4863348,
  "tags": {
    "internet_access": "wlan",
    "name": "Эстель",
    "name:en": "Estel",
    "shop": "beauty",
    "tourism": "hotel"
  }
},
{
  "type": "node",
  "id": 11270232186,
  "lat": 48.6893789,
  "lon": 44.4865283,
  "tags": {
    "name": "Эстель",
    "name:en": "Estel",
    "tourism": "hotel"
  }
},
{
  "type": "node",
  "id": 11289277715,
  "lat": 54.9318384,
  "lon": 60.7536313,
  "tags": {
    "name": "У Березы",
    "tourism": "hotel"
  }
},
{
  "type": "node",
  "id": 11363410607,
  "lat": 51.5028466,
  "lon": 46.1294319,
  "tags": {
    "addr:city": "Энгельс",
    "addr:housenumber": "13",
    "addr:street": "набережная имени Рудченко М.М.",
    "name": "Гостиница Ялта",
    "tourism": "hotel"
  }
},
{
  "type": "node",
  "id": 11363410608,
  "lat": 51.5030445,
  "lon": 46.1294942,
  "tags": {
    "addr:city": "Энгельс",
    "addr:housenumber": "13",
    "addr:street": "набережная имени Рудченко М.М.",
    "name": "Гостиница Korall",
    "tourism": "hotel"
  }
},
{
  "type": "node",
  "id": 11379822456,
  "lat": 50.2821512,
  "lon": 57.2140354,
  "tags": {
    "addr:city": "Актобе",
    "addr:housenumber": "9",
    "addr:street": "улица 8 марта",
    "email": "wa.me/77052108471",
    "internet_access": "wlan",
    "name": "Береке",
    "phone": "+7 705 2108471",
    "tourism": "hotel"
  }
},
{
  "type": "node",
  "id": 11401000307,
  "lat": 51.7982901,
  "lon": 55.1114881,
  "tags": {
    "contact:instagram": "https://www.instagram.com/hotel.olimp/",
    "contact:vk": "https://vk.com/olimp056",
    "email": "info@olimp-oren.ru",
    "name": "Гостиница «Олимп»",
    "phone": "+7(3532)37-00-25",
    "tourism": "hotel",
    "website": "https://www.olimp-oren.ru"
  }
},
{
  "type": "node",
  "id": 11414542829,
  "lat": 53.1865094,
  "lon": 50.1893020,
  "tags": {
    "contact:email": "hotel_kolibri@mail.ru",
    "contact:phone": "+7 846 2506160;+7 917 1506160",
    "contact:website": "https://hotels63.ru",
    "name": "Колибри",
    "opening_hours": "24/7",
    "tourism": "hotel"
  }
},
{
  "type": "node",
  "id": 11486762915,
  "lat": 50.1530601,
  "lon": 55.6511028,
  "tags": {
    "name": "Асхана",
    "tourism": "hotel"
  }
},
{
  "type": "node",
  "id": 11491228895,
  "lat": 51.1553346,
  "lon": 51.5377400,
  "tags": {
    "addr:city": "Орал",
    "brand": "Гостиница",
    "internet_access": "no",
    "name": "Гостиница Аэропорта Уральска",
    "tourism": "hotel",
    "wikidata": "Гостиница Аэропорта Уральска"
  }
},
{
  "type": "node",
  "id": 11572366516,
  "lat": 54.6986166,
  "lon": 55.7622537,
  "tags": {
    "contact:email": "traktir.sergeevskiy@mail.ru",
    "contact:phone": "+7 903 3114342;+7 927 2364244;+7 927 2365457;+7 987 2455703",
    "contact:website": "https://traktirufa.ru",
    "name": "Трактир Сергеевский",
    "opening_hours": "24/7",
    "tourism": "hotel"
  }
},
{
  "type": "node",
  "id": 11594121907,
  "lat": 53.1937412,
  "lon": 50.2395559,
  "tags": {
    "contact:email": "alex.kamskov@yandex.ru",
    "contact:phone": "+7 846 9797384;+7 927 7596111;+7 964 9702603",
    "name": "Хостел",
    "opening_hours": "Mo-Fr 10:00-18:00",
    "tourism": "hotel"
  }
},
{
  "type": "node",
  "id": 11594121914,
  "lat": 53.3174991,
  "lon": 50.2857918,
  "tags": {
    "contact:email": "art@hotelozerki.ru",
    "contact:phone": "+7 927 2606377",
    "name": "Озерки",
    "opening_hours": "24/7",
    "tourism": "hotel"
  }
},
{
  "type": "node",
  "id": 11594121946,
  "lat": 53.2690502,
  "lon": 50.2578163,
  "tags": {
    "contact:email": "logovo-bronirovanie@yandex.ru",
    "contact:phone": "+7 846 2485300;+7 846 9226385;+7 927 7126385;+7 937 1775077",
    "contact:website": "https://logovo-samara.ru/guest",
    "name": "Аля Русъ",
    "opening_hours": "24/7",
    "tourism": "hotel"
  }
},
{
  "type": "node",
  "id": 11595346230,
  "lat": 54.9255097,
  "lon": 59.2342392,
  "tags": {
    "tourism": "hotel",
    "website": "www.eco-zuratkul.com"
  }
},
{
  "type": "node",
  "id": 11613243545,
  "lat": 50.2752232,
  "lon": 57.1374813,
  "tags": {
    "name": "Батыс",
    "tourism": "hotel"
  }
}

  ]
}